<?xml version="1.0" encoding="UTF-8"?>
<gpx xmlns="http://www.topografix.com/GPX/1/1" version="1.1" creator="Arizona Alpine Trail segment export" xmlns:xsi="http://www.w3.org/2001/XMLSchema-instance" xmlns:wptx1="http://www.garmin.com/xmlschemas/WaypointExtension/v1" xmlns:gpxx="http://www.garmin.com/xmlschemas/GpxExtensions/v3" xmlns:gpxtpx="http://www.garmin.com/xmlschemas/TrackPointExtension/v2" xsi:schemaLocation="http://www.topografix.com/GPX/1/1 https://www.topografix.com/GPX/1/1/gpx.xsd">
<metadata>
<name>AZAT Segment 28 - View After View</name>
<desc>Generated from arizona-alpine-trail.gpx.</desc>
<bounds minlat="34.38506500" minlon="-111.39655900" maxlat="34.45613000" maxlon="-111.07592029"/>
</metadata>
<wpt lat="34.45506300" lon="-111.25275100">
<ele>2247.000</ele>
<time>2024-10-22T00:33:57Z</time>
<name>AZAT-View After View</name>
<sym>Flag, Red</sym>
<type>Trail description</type>
<extensions>
<label xmlns="http://www.topografix.com/GPX/gpx_overlay/0/5">
<label_text>AZAT-28 View After View</label_text>
<text xmlns="http://www.topografix.com/GPX/gpx_style/0/2">
<font>
<size>3.704</size>
</font>
</text>
</label>
<time xmlns="http://www.topografix.com/GPX/gpx_modified/0/1">2026-03-19T20:59:12.431Z</time>
</extensions>
</wpt>
<trk>
<name>AZAT28-View After View</name>
<type>Forest Service Rd level 2 or higher</type>
<extensions>
<time xmlns="http://www.topografix.com/GPX/gpx_modified/0/1">2026-03-19T20:58:59.844Z</time>
<override_color xmlns="http://www.topografix.com/GPX/Private/TopoGrafix/0/5">0dd5fc</override_color>
<label xmlns="http://www.topografix.com/GPX/gpx_overlay/0/5">
<label_text>AZAT-28 View After View</label_text>
<text xmlns="http://www.topografix.com/GPX/gpx_style/0/2">
<font>
<size>3.175</size>
</font>
</text>
</label>
<line xmlns="http://www.topografix.com/GPX/gpx_style/0/2">
<color>ff1c45</color>
<opacity>1.00</opacity>
<width>2.0420</width>
<pattern>Solid</pattern>
<extensions>
<cased xmlns="http://www.topografix.com/GPX/Private/TopoGrafix/0/5">true</cased>
</extensions>
</line>
</extensions>
<trkseg>
<trkpt lat="34.38730058" lon="-111.07592029">
<ele>2370.373</ele>
<time>2025-04-28T21:25:52.561Z</time>
</trkpt>
<trkpt lat="34.38729500" lon="-111.07596600">
<ele>2393.900</ele>
</trkpt>
<trkpt lat="34.38742200" lon="-111.07667000">
<ele>2393.300</ele>
</trkpt>
<trkpt lat="34.38752200" lon="-111.07742400">
<ele>2392.700</ele>
</trkpt>
<trkpt lat="34.38761700" lon="-111.07788500">
<ele>2392.500</ele>
</trkpt>
<trkpt lat="34.38776100" lon="-111.07824400">
<ele>2391.600</ele>
</trkpt>
<trkpt lat="34.38801800" lon="-111.07863300">
<ele>2390.600</ele>
</trkpt>
<trkpt lat="34.38830300" lon="-111.07884000">
<ele>2390.600</ele>
</trkpt>
<trkpt lat="34.38856700" lon="-111.07891500">
<ele>2389.900</ele>
</trkpt>
<trkpt lat="34.38930400" lon="-111.07890400">
<ele>2385.000</ele>
</trkpt>
<trkpt lat="34.39074900" lon="-111.07883200">
<ele>2379.800</ele>
</trkpt>
<trkpt lat="34.39157500" lon="-111.07875700">
<ele>2376.900</ele>
</trkpt>
<trkpt lat="34.39196300" lon="-111.07882600">
<ele>2375.500</ele>
</trkpt>
<trkpt lat="34.39279200" lon="-111.07906800">
<ele>2374.600</ele>
</trkpt>
<trkpt lat="34.39342100" lon="-111.07936000">
<ele>2373.400</ele>
</trkpt>
<trkpt lat="34.39370000" lon="-111.07959300">
<ele>2372.100</ele>
</trkpt>
<trkpt lat="34.39390800" lon="-111.07991500">
<ele>2371.800</ele>
</trkpt>
<trkpt lat="34.39402700" lon="-111.08014300">
<ele>2372.400</ele>
</trkpt>
<trkpt lat="34.39414000" lon="-111.08046500">
<ele>2373.800</ele>
</trkpt>
<trkpt lat="34.39419500" lon="-111.08080600">
<ele>2371.600</ele>
</trkpt>
<trkpt lat="34.39417500" lon="-111.08136400">
<ele>2360.700</ele>
</trkpt>
<trkpt lat="34.39391200" lon="-111.08240700">
<ele>2356.300</ele>
</trkpt>
<trkpt lat="34.39382600" lon="-111.08312900">
<ele>2349.800</ele>
</trkpt>
<trkpt lat="34.39385400" lon="-111.08384200">
<ele>2348.700</ele>
</trkpt>
<trkpt lat="34.39396300" lon="-111.08434400">
<ele>2347.300</ele>
</trkpt>
<trkpt lat="34.39410900" lon="-111.08473300">
<ele>2348.700</ele>
</trkpt>
<trkpt lat="34.39445400" lon="-111.08533600">
<ele>2344.500</ele>
</trkpt>
<trkpt lat="34.39487000" lon="-111.08589400">
<ele>2340.000</ele>
</trkpt>
<trkpt lat="34.39512200" lon="-111.08620500">
<ele>2337.700</ele>
</trkpt>
<trkpt lat="34.39561900" lon="-111.08684600">
<ele>2333.300</ele>
</trkpt>
<trkpt lat="34.39626000" lon="-111.08745200">
<ele>2329.600</ele>
</trkpt>
<trkpt lat="34.39668300" lon="-111.08781700">
<ele>2330.000</ele>
</trkpt>
<trkpt lat="34.39740900" lon="-111.08833700">
<ele>2330.300</ele>
</trkpt>
<trkpt lat="34.39788000" lon="-111.08862400">
<ele>2329.800</ele>
</trkpt>
<trkpt lat="34.39817700" lon="-111.08878500">
<ele>2329.000</ele>
</trkpt>
<trkpt lat="34.39875600" lon="-111.08908600">
<ele>2326.800</ele>
</trkpt>
<trkpt lat="34.39968900" lon="-111.08959500">
<ele>2320.900</ele>
</trkpt>
<trkpt lat="34.40042300" lon="-111.09002700">
<ele>2314.600</ele>
</trkpt>
<trkpt lat="34.40076000" lon="-111.09025000">
<ele>2312.100</ele>
</trkpt>
<trkpt lat="34.40123400" lon="-111.09062800">
<ele>2312.200</ele>
</trkpt>
<trkpt lat="34.40125100" lon="-111.09064100">
<ele>2312.200</ele>
</trkpt>
<trkpt lat="34.40146100" lon="-111.09089400">
<ele>2311.500</ele>
</trkpt>
<trkpt lat="34.40172200" lon="-111.09127200">
<ele>2309.000</ele>
</trkpt>
<trkpt lat="34.40263200" lon="-111.09282500">
<ele>2293.800</ele>
</trkpt>
<trkpt lat="34.40279700" lon="-111.09327600">
<ele>2298.400</ele>
</trkpt>
<trkpt lat="34.40286900" lon="-111.09347400">
<ele>2301.900</ele>
</trkpt>
<trkpt lat="34.40298200" lon="-111.09405300">
<ele>2306.500</ele>
</trkpt>
<trkpt lat="34.40297000" lon="-111.09457600">
<ele>2307.400</ele>
</trkpt>
<trkpt lat="34.40290800" lon="-111.09521700">
<ele>2309.200</ele>
</trkpt>
<trkpt lat="34.40282700" lon="-111.09577800">
<ele>2310.900</ele>
</trkpt>
<trkpt lat="34.40273400" lon="-111.09623700">
<ele>2313.100</ele>
</trkpt>
<trkpt lat="34.40267200" lon="-111.09644600">
<ele>2314.500</ele>
</trkpt>
<trkpt lat="34.40260500" lon="-111.09663900">
<ele>2316.000</ele>
</trkpt>
<trkpt lat="34.40257900" lon="-111.09674500">
<ele>2316.400</ele>
</trkpt>
<trkpt lat="34.40255700" lon="-111.09678600">
<ele>2316.600</ele>
</trkpt>
<trkpt lat="34.40248500" lon="-111.09692200">
<ele>2317.000</ele>
</trkpt>
<trkpt lat="34.40235500" lon="-111.09719700">
<ele>2317.500</ele>
</trkpt>
<trkpt lat="34.39919100" lon="-111.10311200">
<ele>2323.800</ele>
</trkpt>
<trkpt lat="34.39904200" lon="-111.10342800">
<ele>2322.000</ele>
</trkpt>
<trkpt lat="34.39896900" lon="-111.10366600">
<ele>2320.600</ele>
</trkpt>
<trkpt lat="34.39896200" lon="-111.10383700">
<ele>2320.200</ele>
</trkpt>
<trkpt lat="34.39896200" lon="-111.10403600">
<ele>2320.100</ele>
</trkpt>
<trkpt lat="34.39904900" lon="-111.10450600">
<ele>2323.200</ele>
</trkpt>
<trkpt lat="34.39921300" lon="-111.10493200">
<ele>2327.200</ele>
</trkpt>
<trkpt lat="34.39968900" lon="-111.10592700">
<ele>2331.300</ele>
</trkpt>
<trkpt lat="34.39993200" lon="-111.10655200">
<ele>2338.800</ele>
</trkpt>
<trkpt lat="34.40008600" lon="-111.10719200">
<ele>2344.200</ele>
</trkpt>
<trkpt lat="34.40012900" lon="-111.10752300">
<ele>2348.900</ele>
</trkpt>
<trkpt lat="34.40008500" lon="-111.10784500">
<ele>2352.800</ele>
</trkpt>
<trkpt lat="34.39998900" lon="-111.10812700">
<ele>2353.900</ele>
</trkpt>
<trkpt lat="34.39986200" lon="-111.10831200">
<ele>2354.000</ele>
</trkpt>
<trkpt lat="34.39967500" lon="-111.10858300">
<ele>2354.600</ele>
</trkpt>
<trkpt lat="34.39952000" lon="-111.10873600">
<ele>2354.900</ele>
</trkpt>
<trkpt lat="34.39942100" lon="-111.10881300">
<ele>2355.100</ele>
</trkpt>
<trkpt lat="34.39925100" lon="-111.10896000">
<ele>2355.500</ele>
</trkpt>
<trkpt lat="34.39869000" lon="-111.10920000">
<ele>2356.100</ele>
</trkpt>
<trkpt lat="34.39844700" lon="-111.10934400">
<ele>2356.200</ele>
</trkpt>
<trkpt lat="34.39818800" lon="-111.10958900">
<ele>2356.100</ele>
</trkpt>
<trkpt lat="34.39789900" lon="-111.11000600">
<ele>2355.700</ele>
</trkpt>
<trkpt lat="34.39766400" lon="-111.11054300">
<ele>2354.900</ele>
</trkpt>
<trkpt lat="34.39750600" lon="-111.11119500">
<ele>2353.900</ele>
</trkpt>
<trkpt lat="34.39738900" lon="-111.11187100">
<ele>2355.300</ele>
</trkpt>
<trkpt lat="34.39733600" lon="-111.11257400">
<ele>2355.500</ele>
</trkpt>
<trkpt lat="34.39732500" lon="-111.11338900">
<ele>2356.100</ele>
</trkpt>
<trkpt lat="34.39732900" lon="-111.11424200">
<ele>2356.400</ele>
</trkpt>
<trkpt lat="34.39727400" lon="-111.11502000">
<ele>2355.900</ele>
</trkpt>
<trkpt lat="34.39710100" lon="-111.11564500">
<ele>2356.100</ele>
</trkpt>
<trkpt lat="34.39690400" lon="-111.11613600">
<ele>2358.300</ele>
</trkpt>
<trkpt lat="34.39664300" lon="-111.11661800">
<ele>2362.300</ele>
</trkpt>
<trkpt lat="34.39626200" lon="-111.11716800">
<ele>2366.700</ele>
</trkpt>
<trkpt lat="34.39599900" lon="-111.11746100">
<ele>2368.500</ele>
</trkpt>
<trkpt lat="34.39559200" lon="-111.11773300">
<ele>2370.900</ele>
</trkpt>
<trkpt lat="34.39455600" lon="-111.11811000">
<ele>2374.000</ele>
</trkpt>
<trkpt lat="34.39404000" lon="-111.11840500">
<ele>2376.000</ele>
</trkpt>
<trkpt lat="34.39316600" lon="-111.11910500">
<ele>2380.500</ele>
</trkpt>
<trkpt lat="34.39282300" lon="-111.11943000">
<ele>2382.300</ele>
</trkpt>
<trkpt lat="34.39180300" lon="-111.12045800">
<ele>2383.400</ele>
</trkpt>
<trkpt lat="34.39178300" lon="-111.12047800">
<ele>2383.100</ele>
</trkpt>
<trkpt lat="34.39149300" lon="-111.12091600">
<ele>2384.800</ele>
</trkpt>
<trkpt lat="34.39142600" lon="-111.12113300">
<ele>2385.600</ele>
</trkpt>
<trkpt lat="34.39141400" lon="-111.12136300">
<ele>2386.700</ele>
</trkpt>
<trkpt lat="34.39139500" lon="-111.12199400">
<ele>2387.000</ele>
</trkpt>
<trkpt lat="34.39146200" lon="-111.12237200">
<ele>2387.500</ele>
</trkpt>
<trkpt lat="34.39157900" lon="-111.12311800">
<ele>2388.600</ele>
</trkpt>
<trkpt lat="34.39167900" lon="-111.12392000">
<ele>2388.200</ele>
</trkpt>
<trkpt lat="34.39182000" lon="-111.12534900">
<ele>2389.800</ele>
</trkpt>
<trkpt lat="34.39185400" lon="-111.12611500">
<ele>2389.800</ele>
</trkpt>
<trkpt lat="34.39184800" lon="-111.12649300">
<ele>2389.300</ele>
</trkpt>
<trkpt lat="34.39184200" lon="-111.12686200">
<ele>2389.400</ele>
</trkpt>
<trkpt lat="34.39172500" lon="-111.12777900">
<ele>2389.800</ele>
</trkpt>
<trkpt lat="34.39153500" lon="-111.12863800">
<ele>2384.800</ele>
</trkpt>
<trkpt lat="34.39124400" lon="-111.12941800">
<ele>2381.000</ele>
</trkpt>
<trkpt lat="34.39096600" lon="-111.12992800">
<ele>2381.400</ele>
</trkpt>
<trkpt lat="34.39004500" lon="-111.13135200">
<ele>2390.300</ele>
</trkpt>
<trkpt lat="34.38979700" lon="-111.13179500">
<ele>2390.600</ele>
</trkpt>
<trkpt lat="34.38966200" lon="-111.13217000">
<ele>2390.900</ele>
</trkpt>
<trkpt lat="34.38958700" lon="-111.13266600">
<ele>2392.200</ele>
</trkpt>
<trkpt lat="34.38962000" lon="-111.13316800">
<ele>2394.300</ele>
</trkpt>
<trkpt lat="34.38968700" lon="-111.13349700">
<ele>2394.900</ele>
</trkpt>
<trkpt lat="34.38990800" lon="-111.13421500">
<ele>2396.400</ele>
</trkpt>
<trkpt lat="34.38999400" lon="-111.13468600">
<ele>2398.500</ele>
</trkpt>
<trkpt lat="34.39006100" lon="-111.13553600">
<ele>2400.700</ele>
</trkpt>
<trkpt lat="34.39010500" lon="-111.13646700">
<ele>2398.800</ele>
</trkpt>
<trkpt lat="34.39007400" lon="-111.13686700">
<ele>2397.900</ele>
</trkpt>
<trkpt lat="34.39000100" lon="-111.13726400">
<ele>2397.800</ele>
</trkpt>
<trkpt lat="34.38982400" lon="-111.13771200">
<ele>2400.700</ele>
</trkpt>
<trkpt lat="34.38965400" lon="-111.13798800">
<ele>2402.400</ele>
</trkpt>
<trkpt lat="34.38920900" lon="-111.13840400">
<ele>2404.500</ele>
</trkpt>
<trkpt lat="34.38844300" lon="-111.13910100">
<ele>2408.500</ele>
</trkpt>
<trkpt lat="34.38788300" lon="-111.13970700">
<ele>2411.200</ele>
</trkpt>
<trkpt lat="34.38567800" lon="-111.14212100">
<ele>2409.100</ele>
</trkpt>
<trkpt lat="34.38535500" lon="-111.14252100">
<ele>2409.600</ele>
</trkpt>
<trkpt lat="34.38525700" lon="-111.14270000">
<ele>2409.900</ele>
</trkpt>
<trkpt lat="34.38513400" lon="-111.14307300">
<ele>2411.100</ele>
</trkpt>
<trkpt lat="34.38506500" lon="-111.14378700">
<ele>2412.900</ele>
</trkpt>
<trkpt lat="34.38508000" lon="-111.14396900">
<ele>2413.500</ele>
</trkpt>
<trkpt lat="34.38523300" lon="-111.14441400">
<ele>2414.200</ele>
</trkpt>
<trkpt lat="34.38541600" lon="-111.14478200">
<ele>2414.400</ele>
</trkpt>
<trkpt lat="34.38541000" lon="-111.14478700">
<ele>2414.400</ele>
</trkpt>
<trkpt lat="34.38591100" lon="-111.14552700">
<ele>2414.000</ele>
</trkpt>
<trkpt lat="34.38658100" lon="-111.14639100">
<ele>2413.900</ele>
</trkpt>
<trkpt lat="34.38731200" lon="-111.14709900">
<ele>2412.900</ele>
</trkpt>
<trkpt lat="34.38868100" lon="-111.14842800">
<ele>2406.700</ele>
</trkpt>
<trkpt lat="34.38911100" lon="-111.14883500">
<ele>2404.500</ele>
</trkpt>
<trkpt lat="34.38941700" lon="-111.14906500">
<ele>2403.400</ele>
</trkpt>
<trkpt lat="34.38987500" lon="-111.14927200">
<ele>2402.500</ele>
</trkpt>
<trkpt lat="34.39018700" lon="-111.14938400">
<ele>2402.200</ele>
</trkpt>
<trkpt lat="34.39219200" lon="-111.15022400">
<ele>2403.600</ele>
</trkpt>
<trkpt lat="34.39361500" lon="-111.15082800">
<ele>2404.800</ele>
</trkpt>
<trkpt lat="34.39404900" lon="-111.15106100">
<ele>2404.400</ele>
</trkpt>
<trkpt lat="34.39647900" lon="-111.15313100">
<ele>2394.400</ele>
</trkpt>
<trkpt lat="34.39890300" lon="-111.15514100">
<ele>2378.300</ele>
</trkpt>
<trkpt lat="34.39917700" lon="-111.15538200">
<ele>2376.400</ele>
</trkpt>
<trkpt lat="34.39937600" lon="-111.15568500">
<ele>2372.900</ele>
</trkpt>
<trkpt lat="34.39947100" lon="-111.15599500">
<ele>2375.200</ele>
</trkpt>
<trkpt lat="34.39996100" lon="-111.15727300">
<ele>2383.300</ele>
</trkpt>
<trkpt lat="34.40037500" lon="-111.15831600">
<ele>2380.900</ele>
</trkpt>
<trkpt lat="34.40075700" lon="-111.15892200">
<ele>2389.200</ele>
</trkpt>
<trkpt lat="34.40108100" lon="-111.15924400">
<ele>2394.100</ele>
</trkpt>
<trkpt lat="34.40150800" lon="-111.15958200">
<ele>2393.600</ele>
</trkpt>
<trkpt lat="34.40282700" lon="-111.16015400">
<ele>2384.100</ele>
</trkpt>
<trkpt lat="34.40343300" lon="-111.16043800">
<ele>2383.700</ele>
</trkpt>
<trkpt lat="34.40394900" lon="-111.16071900">
<ele>2384.000</ele>
</trkpt>
<trkpt lat="34.40411300" lon="-111.16091500">
<ele>2383.800</ele>
</trkpt>
<trkpt lat="34.40422300" lon="-111.16114300">
<ele>2383.500</ele>
</trkpt>
<trkpt lat="34.40448000" lon="-111.16270900">
<ele>2379.100</ele>
</trkpt>
<trkpt lat="34.40472500" lon="-111.16396800">
<ele>2380.600</ele>
</trkpt>
<trkpt lat="34.40476400" lon="-111.16438900">
<ele>2377.200</ele>
</trkpt>
<trkpt lat="34.40474500" lon="-111.16482900">
<ele>2376.800</ele>
</trkpt>
<trkpt lat="34.40468100" lon="-111.16530800">
<ele>2377.800</ele>
</trkpt>
<trkpt lat="34.40440200" lon="-111.16608400">
<ele>2385.700</ele>
</trkpt>
<trkpt lat="34.40384300" lon="-111.16706700">
<ele>2406.400</ele>
</trkpt>
<trkpt lat="34.40277900" lon="-111.16886100">
<ele>2397.500</ele>
</trkpt>
<trkpt lat="34.40254200" lon="-111.16955400">
<ele>2401.900</ele>
</trkpt>
<trkpt lat="34.40260000" lon="-111.17004300">
<ele>2404.500</ele>
</trkpt>
<trkpt lat="34.40264500" lon="-111.17042000">
<ele>2403.900</ele>
</trkpt>
<trkpt lat="34.40295500" lon="-111.17108900">
<ele>2409.300</ele>
</trkpt>
<trkpt lat="34.40320700" lon="-111.17144300">
<ele>2413.800</ele>
</trkpt>
<trkpt lat="34.40348400" lon="-111.17174600">
<ele>2412.500</ele>
</trkpt>
<trkpt lat="34.40381100" lon="-111.17195500">
<ele>2407.000</ele>
</trkpt>
<trkpt lat="34.40485700" lon="-111.17224400">
<ele>2410.800</ele>
</trkpt>
<trkpt lat="34.40549600" lon="-111.17246500">
<ele>2399.800</ele>
</trkpt>
<trkpt lat="34.40576100" lon="-111.17263000">
<ele>2396.300</ele>
</trkpt>
<trkpt lat="34.40597800" lon="-111.17289100">
<ele>2393.400</ele>
</trkpt>
<trkpt lat="34.40612800" lon="-111.17312700">
<ele>2392.600</ele>
</trkpt>
<trkpt lat="34.40625400" lon="-111.17346300">
<ele>2390.700</ele>
</trkpt>
<trkpt lat="34.40634100" lon="-111.17385200">
<ele>2388.100</ele>
</trkpt>
<trkpt lat="34.40634700" lon="-111.17408200">
<ele>2389.000</ele>
</trkpt>
<trkpt lat="34.40615500" lon="-111.17511500">
<ele>2392.500</ele>
</trkpt>
<trkpt lat="34.40613300" lon="-111.17552000">
<ele>2399.700</ele>
</trkpt>
<trkpt lat="34.40616200" lon="-111.17583900">
<ele>2403.200</ele>
</trkpt>
<trkpt lat="34.40624100" lon="-111.17614200">
<ele>2403.600</ele>
</trkpt>
<trkpt lat="34.40652200" lon="-111.17655500">
<ele>2397.800</ele>
</trkpt>
<trkpt lat="34.40676700" lon="-111.17672200">
<ele>2394.800</ele>
</trkpt>
<trkpt lat="34.40708800" lon="-111.17696700">
<ele>2392.600</ele>
</trkpt>
<trkpt lat="34.40770900" lon="-111.17731200">
<ele>2395.000</ele>
</trkpt>
<trkpt lat="34.40826200" lon="-111.17767400">
<ele>2394.200</ele>
</trkpt>
<trkpt lat="34.40853200" lon="-111.17792100">
<ele>2390.400</ele>
</trkpt>
<trkpt lat="34.40890800" lon="-111.17835500">
<ele>2388.400</ele>
</trkpt>
<trkpt lat="34.40926200" lon="-111.17885700">
<ele>2403.400</ele>
</trkpt>
<trkpt lat="34.40945700" lon="-111.17932900">
<ele>2405.700</ele>
</trkpt>
<trkpt lat="34.40954700" lon="-111.17966900">
<ele>2403.800</ele>
</trkpt>
<trkpt lat="34.40964700" lon="-111.18027300">
<ele>2403.200</ele>
</trkpt>
<trkpt lat="34.40969100" lon="-111.18068600">
<ele>2403.700</ele>
</trkpt>
<trkpt lat="34.40979700" lon="-111.18113100">
<ele>2403.600</ele>
</trkpt>
<trkpt lat="34.41000700" lon="-111.18169500">
<ele>2403.300</ele>
</trkpt>
<trkpt lat="34.41020500" lon="-111.18208100">
<ele>2403.000</ele>
</trkpt>
<trkpt lat="34.41037600" lon="-111.18243900">
<ele>2402.800</ele>
</trkpt>
<trkpt lat="34.41052300" lon="-111.18271600">
<ele>2403.600</ele>
</trkpt>
<trkpt lat="34.41062200" lon="-111.18300600">
<ele>2404.900</ele>
</trkpt>
<trkpt lat="34.41068500" lon="-111.18334100">
<ele>2405.800</ele>
</trkpt>
<trkpt lat="34.41071000" lon="-111.18362400">
<ele>2404.800</ele>
</trkpt>
<trkpt lat="34.41070500" lon="-111.18420000">
<ele>2402.800</ele>
</trkpt>
<trkpt lat="34.41064500" lon="-111.18466900">
<ele>2406.100</ele>
</trkpt>
<trkpt lat="34.41046400" lon="-111.18520800">
<ele>2408.000</ele>
</trkpt>
<trkpt lat="34.41007200" lon="-111.18564500">
<ele>2408.500</ele>
</trkpt>
<trkpt lat="34.40980900" lon="-111.18584400">
<ele>2405.900</ele>
</trkpt>
<trkpt lat="34.40959400" lon="-111.18604200">
<ele>2401.500</ele>
</trkpt>
<trkpt lat="34.40912500" lon="-111.18650400">
<ele>2401.000</ele>
</trkpt>
<trkpt lat="34.40868200" lon="-111.18721100">
<ele>2398.200</ele>
</trkpt>
<trkpt lat="34.40848700" lon="-111.18770500">
<ele>2397.800</ele>
</trkpt>
<trkpt lat="34.40841200" lon="-111.18810200">
<ele>2398.000</ele>
</trkpt>
<trkpt lat="34.40836800" lon="-111.18852600">
<ele>2397.800</ele>
</trkpt>
<trkpt lat="34.40835900" lon="-111.18943500">
<ele>2402.900</ele>
</trkpt>
<trkpt lat="34.40829500" lon="-111.19058900">
<ele>2400.500</ele>
</trkpt>
<trkpt lat="34.40813300" lon="-111.19211700">
<ele>2395.300</ele>
</trkpt>
<trkpt lat="34.40805600" lon="-111.19383400">
<ele>2389.800</ele>
</trkpt>
<trkpt lat="34.40804600" lon="-111.19553800">
<ele>2383.600</ele>
</trkpt>
<trkpt lat="34.40808900" lon="-111.19590200">
<ele>2383.800</ele>
</trkpt>
<trkpt lat="34.40813600" lon="-111.19609800">
<ele>2384.500</ele>
</trkpt>
<trkpt lat="34.40822900" lon="-111.19633900">
<ele>2386.200</ele>
</trkpt>
<trkpt lat="34.40841400" lon="-111.19671700">
<ele>2389.700</ele>
</trkpt>
<trkpt lat="34.40859100" lon="-111.19696200">
<ele>2390.900</ele>
</trkpt>
<trkpt lat="34.40907200" lon="-111.19744400">
<ele>2391.200</ele>
</trkpt>
<trkpt lat="34.40932400" lon="-111.19776600">
<ele>2389.800</ele>
</trkpt>
<trkpt lat="34.40983000" lon="-111.19862000">
<ele>2383.500</ele>
</trkpt>
<trkpt lat="34.40995200" lon="-111.19891400">
<ele>2384.200</ele>
</trkpt>
<trkpt lat="34.41001000" lon="-111.19917400">
<ele>2383.900</ele>
</trkpt>
<trkpt lat="34.41003200" lon="-111.19967600">
<ele>2384.700</ele>
</trkpt>
<trkpt lat="34.41002800" lon="-111.20018000">
<ele>2385.200</ele>
</trkpt>
<trkpt lat="34.40995500" lon="-111.20056600">
<ele>2383.100</ele>
</trkpt>
<trkpt lat="34.40966000" lon="-111.20187800">
<ele>2378.200</ele>
</trkpt>
<trkpt lat="34.40963800" lon="-111.20233100">
<ele>2378.100</ele>
</trkpt>
<trkpt lat="34.40965100" lon="-111.20266600">
<ele>2376.900</ele>
</trkpt>
<trkpt lat="34.40996600" lon="-111.20411800">
<ele>2372.300</ele>
</trkpt>
<trkpt lat="34.41005900" lon="-111.20460300">
<ele>2366.600</ele>
</trkpt>
<trkpt lat="34.41013400" lon="-111.20544500">
<ele>2366.900</ele>
</trkpt>
<trkpt lat="34.41017100" lon="-111.20632000">
<ele>2355.200</ele>
</trkpt>
<trkpt lat="34.41013800" lon="-111.20682400">
<ele>2352.700</ele>
</trkpt>
<trkpt lat="34.41007800" lon="-111.20730400">
<ele>2367.600</ele>
</trkpt>
<trkpt lat="34.41006800" lon="-111.20793400">
<ele>2367.100</ele>
</trkpt>
<trkpt lat="34.41007200" lon="-111.20885000">
<ele>2353.300</ele>
</trkpt>
<trkpt lat="34.41009400" lon="-111.20916000">
<ele>2353.000</ele>
</trkpt>
<trkpt lat="34.41018600" lon="-111.20940500">
<ele>2352.100</ele>
</trkpt>
<trkpt lat="34.41036600" lon="-111.20970500">
<ele>2349.900</ele>
</trkpt>
<trkpt lat="34.41062100" lon="-111.20990000">
<ele>2346.400</ele>
</trkpt>
<trkpt lat="34.41111200" lon="-111.21015300">
<ele>2340.600</ele>
</trkpt>
<trkpt lat="34.41139500" lon="-111.21028100">
<ele>2339.700</ele>
</trkpt>
<trkpt lat="34.41156600" lon="-111.21038300">
<ele>2340.300</ele>
</trkpt>
<trkpt lat="34.41168500" lon="-111.21046900">
<ele>2341.100</ele>
</trkpt>
<trkpt lat="34.41191700" lon="-111.21071900">
<ele>2343.400</ele>
</trkpt>
<trkpt lat="34.41220100" lon="-111.21077800">
<ele>2344.800</ele>
</trkpt>
<trkpt lat="34.41270500" lon="-111.21079400">
<ele>2350.000</ele>
</trkpt>
<trkpt lat="34.41311400" lon="-111.21089800">
<ele>2354.100</ele>
</trkpt>
<trkpt lat="34.41344200" lon="-111.21100800">
<ele>2354.500</ele>
</trkpt>
<trkpt lat="34.41369400" lon="-111.21109700">
<ele>2353.900</ele>
</trkpt>
<trkpt lat="34.41392700" lon="-111.21119100">
<ele>2353.700</ele>
</trkpt>
<trkpt lat="34.41429600" lon="-111.21132500">
<ele>2354.000</ele>
</trkpt>
<trkpt lat="34.41469000" lon="-111.21155300">
<ele>2354.200</ele>
</trkpt>
<trkpt lat="34.41505500" lon="-111.21186100">
<ele>2356.100</ele>
</trkpt>
<trkpt lat="34.41546200" lon="-111.21245100">
<ele>2361.200</ele>
</trkpt>
<trkpt lat="34.41578700" lon="-111.21296900">
<ele>2364.700</ele>
</trkpt>
<trkpt lat="34.41600200" lon="-111.21317800">
<ele>2365.200</ele>
</trkpt>
<trkpt lat="34.41650900" lon="-111.21344400">
<ele>2366.200</ele>
</trkpt>
<trkpt lat="34.41693600" lon="-111.21365300">
<ele>2368.200</ele>
</trkpt>
<trkpt lat="34.41731000" lon="-111.21393200">
<ele>2372.900</ele>
</trkpt>
<trkpt lat="34.41751000" lon="-111.21414100">
<ele>2376.300</ele>
</trkpt>
<trkpt lat="34.41786600" lon="-111.21464500">
<ele>2377.400</ele>
</trkpt>
<trkpt lat="34.41825500" lon="-111.21518700">
<ele>2378.900</ele>
</trkpt>
<trkpt lat="34.41827300" lon="-111.21520400">
<ele>2378.700</ele>
</trkpt>
<trkpt lat="34.41885800" lon="-111.21573500">
<ele>2373.300</ele>
</trkpt>
<trkpt lat="34.41902900" lon="-111.21587400">
<ele>2369.600</ele>
</trkpt>
<trkpt lat="34.41919900" lon="-111.21605900">
<ele>2366.000</ele>
</trkpt>
<trkpt lat="34.41920900" lon="-111.21607400">
<ele>2366.000</ele>
</trkpt>
<trkpt lat="34.41931000" lon="-111.21626500">
<ele>2365.300</ele>
</trkpt>
<trkpt lat="34.41932800" lon="-111.21643400">
<ele>2364.400</ele>
</trkpt>
<trkpt lat="34.41932100" lon="-111.21656400">
<ele>2363.700</ele>
</trkpt>
<trkpt lat="34.41920900" lon="-111.21688400">
<ele>2360.700</ele>
</trkpt>
<trkpt lat="34.41902500" lon="-111.21706600">
<ele>2358.700</ele>
</trkpt>
<trkpt lat="34.41885600" lon="-111.21711000">
<ele>2358.000</ele>
</trkpt>
<trkpt lat="34.41832700" lon="-111.21713500">
<ele>2352.200</ele>
</trkpt>
<trkpt lat="34.41802000" lon="-111.21713600">
<ele>2350.000</ele>
</trkpt>
<trkpt lat="34.41789300" lon="-111.21721600">
<ele>2348.300</ele>
</trkpt>
<trkpt lat="34.41783900" lon="-111.21728900">
<ele>2346.000</ele>
</trkpt>
<trkpt lat="34.41782900" lon="-111.21745000">
<ele>2343.900</ele>
</trkpt>
<trkpt lat="34.41787300" lon="-111.21762400">
<ele>2344.800</ele>
</trkpt>
<trkpt lat="34.41808600" lon="-111.21819800">
<ele>2349.000</ele>
</trkpt>
<trkpt lat="34.41810700" lon="-111.21835300">
<ele>2350.800</ele>
</trkpt>
<trkpt lat="34.41807200" lon="-111.21856800">
<ele>2352.200</ele>
</trkpt>
<trkpt lat="34.41797000" lon="-111.21875600">
<ele>2351.800</ele>
</trkpt>
<trkpt lat="34.41787400" lon="-111.21887000">
<ele>2351.200</ele>
</trkpt>
<trkpt lat="34.41782100" lon="-111.21890200">
<ele>2351.100</ele>
</trkpt>
<trkpt lat="34.41754800" lon="-111.21907000">
<ele>2352.400</ele>
</trkpt>
<trkpt lat="34.41737100" lon="-111.21918000">
<ele>2354.900</ele>
</trkpt>
<trkpt lat="34.41710200" lon="-111.21945100">
<ele>2355.600</ele>
</trkpt>
<trkpt lat="34.41702600" lon="-111.21963700">
<ele>2355.700</ele>
</trkpt>
<trkpt lat="34.41699700" lon="-111.21989600">
<ele>2358.500</ele>
</trkpt>
<trkpt lat="34.41701800" lon="-111.22017200">
<ele>2362.200</ele>
</trkpt>
<trkpt lat="34.41716500" lon="-111.22068000">
<ele>2366.500</ele>
</trkpt>
<trkpt lat="34.41736000" lon="-111.22101600">
<ele>2364.700</ele>
</trkpt>
<trkpt lat="34.41754900" lon="-111.22117100">
<ele>2362.000</ele>
</trkpt>
<trkpt lat="34.41773300" lon="-111.22128500">
<ele>2360.400</ele>
</trkpt>
<trkpt lat="34.41792500" lon="-111.22144500">
<ele>2359.000</ele>
</trkpt>
<trkpt lat="34.41826800" lon="-111.22168600">
<ele>2364.500</ele>
</trkpt>
<trkpt lat="34.41851500" lon="-111.22174800">
<ele>2367.500</ele>
</trkpt>
<trkpt lat="34.41870700" lon="-111.22172100">
<ele>2366.200</ele>
</trkpt>
<trkpt lat="34.41905800" lon="-111.22166700">
<ele>2359.500</ele>
</trkpt>
<trkpt lat="34.41927100" lon="-111.22164400">
<ele>2354.900</ele>
</trkpt>
<trkpt lat="34.41994000" lon="-111.22152400">
<ele>2347.200</ele>
</trkpt>
<trkpt lat="34.42021500" lon="-111.22152300">
<ele>2345.100</ele>
</trkpt>
<trkpt lat="34.42050200" lon="-111.22159500">
<ele>2344.800</ele>
</trkpt>
<trkpt lat="34.42088100" lon="-111.22167300">
<ele>2348.300</ele>
</trkpt>
<trkpt lat="34.42126300" lon="-111.22167300">
<ele>2351.800</ele>
</trkpt>
<trkpt lat="34.42173400" lon="-111.22162700">
<ele>2356.400</ele>
</trkpt>
<trkpt lat="34.42202000" lon="-111.22162000">
<ele>2355.900</ele>
</trkpt>
<trkpt lat="34.42270000" lon="-111.22162800">
<ele>2353.600</ele>
</trkpt>
<trkpt lat="34.42320000" lon="-111.22167500">
<ele>2355.300</ele>
</trkpt>
<trkpt lat="34.42401600" lon="-111.22184200">
<ele>2353.800</ele>
</trkpt>
<trkpt lat="34.42433700" lon="-111.22187900">
<ele>2354.400</ele>
</trkpt>
<trkpt lat="34.42475900" lon="-111.22183400">
<ele>2353.000</ele>
</trkpt>
<trkpt lat="34.42544400" lon="-111.22176900">
<ele>2350.200</ele>
</trkpt>
<trkpt lat="34.42563500" lon="-111.22177200">
<ele>2349.000</ele>
</trkpt>
<trkpt lat="34.42586700" lon="-111.22183400">
<ele>2347.500</ele>
</trkpt>
<trkpt lat="34.42590500" lon="-111.22186300">
<ele>2347.100</ele>
</trkpt>
<trkpt lat="34.42599400" lon="-111.22193300">
<ele>2346.300</ele>
</trkpt>
<trkpt lat="34.42608000" lon="-111.22206000">
<ele>2345.000</ele>
</trkpt>
<trkpt lat="34.42610600" lon="-111.22221300">
<ele>2342.900</ele>
</trkpt>
<trkpt lat="34.42609400" lon="-111.22243700">
<ele>2341.500</ele>
</trkpt>
<trkpt lat="34.42601900" lon="-111.22292000">
<ele>2342.500</ele>
</trkpt>
<trkpt lat="34.42593700" lon="-111.22337600">
<ele>2343.800</ele>
</trkpt>
<trkpt lat="34.42592100" lon="-111.22373100">
<ele>2344.300</ele>
</trkpt>
<trkpt lat="34.42590600" lon="-111.22399300">
<ele>2345.400</ele>
</trkpt>
<trkpt lat="34.42595700" lon="-111.22425700">
<ele>2345.800</ele>
</trkpt>
<trkpt lat="34.42607500" lon="-111.22443700">
<ele>2348.600</ele>
</trkpt>
<trkpt lat="34.42619200" lon="-111.22456400">
<ele>2350.500</ele>
</trkpt>
<trkpt lat="34.42644900" lon="-111.22466700">
<ele>2353.500</ele>
</trkpt>
<trkpt lat="34.42705400" lon="-111.22474700">
<ele>2355.100</ele>
</trkpt>
<trkpt lat="34.42730800" lon="-111.22477700">
<ele>2352.100</ele>
</trkpt>
<trkpt lat="34.42769300" lon="-111.22483600">
<ele>2345.700</ele>
</trkpt>
<trkpt lat="34.42792800" lon="-111.22486200">
<ele>2341.600</ele>
</trkpt>
<trkpt lat="34.42811500" lon="-111.22490300">
<ele>2339.100</ele>
</trkpt>
<trkpt lat="34.42826300" lon="-111.22497500">
<ele>2337.400</ele>
</trkpt>
<trkpt lat="34.42840800" lon="-111.22510200">
<ele>2335.900</ele>
</trkpt>
<trkpt lat="34.42848400" lon="-111.22524700">
<ele>2334.800</ele>
</trkpt>
<trkpt lat="34.42852200" lon="-111.22542400">
<ele>2334.700</ele>
</trkpt>
<trkpt lat="34.42855500" lon="-111.22568500">
<ele>2336.000</ele>
</trkpt>
<trkpt lat="34.42862000" lon="-111.22581800">
<ele>2338.100</ele>
</trkpt>
<trkpt lat="34.42872300" lon="-111.22593600">
<ele>2339.200</ele>
</trkpt>
<trkpt lat="34.42889800" lon="-111.22603000">
<ele>2339.600</ele>
</trkpt>
<trkpt lat="34.42915700" lon="-111.22615300">
<ele>2338.600</ele>
</trkpt>
<trkpt lat="34.42933300" lon="-111.22631300">
<ele>2335.700</ele>
</trkpt>
<trkpt lat="34.42941100" lon="-111.22644700">
<ele>2334.200</ele>
</trkpt>
<trkpt lat="34.42950200" lon="-111.22670400">
<ele>2336.800</ele>
</trkpt>
<trkpt lat="34.42957700" lon="-111.22688600">
<ele>2337.500</ele>
</trkpt>
<trkpt lat="34.42979700" lon="-111.22713500">
<ele>2333.800</ele>
</trkpt>
<trkpt lat="34.42999300" lon="-111.22729900">
<ele>2330.200</ele>
</trkpt>
<trkpt lat="34.43017200" lon="-111.22737100">
<ele>2329.700</ele>
</trkpt>
<trkpt lat="34.43040800" lon="-111.22738300">
<ele>2329.600</ele>
</trkpt>
<trkpt lat="34.43103300" lon="-111.22733400">
<ele>2335.500</ele>
</trkpt>
<trkpt lat="34.43127200" lon="-111.22732400">
<ele>2335.200</ele>
</trkpt>
<trkpt lat="34.43168500" lon="-111.22730700">
<ele>2335.800</ele>
</trkpt>
<trkpt lat="34.43196400" lon="-111.22733200">
<ele>2337.000</ele>
</trkpt>
<trkpt lat="34.43209100" lon="-111.22738000">
<ele>2337.600</ele>
</trkpt>
<trkpt lat="34.43224200" lon="-111.22748100">
<ele>2337.500</ele>
</trkpt>
<trkpt lat="34.43228000" lon="-111.22750700">
<ele>2337.800</ele>
</trkpt>
<trkpt lat="34.43250200" lon="-111.22771600">
<ele>2338.800</ele>
</trkpt>
<trkpt lat="34.43272300" lon="-111.22795200">
<ele>2340.500</ele>
</trkpt>
<trkpt lat="34.43297000" lon="-111.22819700">
<ele>2341.500</ele>
</trkpt>
<trkpt lat="34.43311700" lon="-111.22841700">
<ele>2341.400</ele>
</trkpt>
<trkpt lat="34.43316200" lon="-111.22862100">
<ele>2340.600</ele>
</trkpt>
<trkpt lat="34.43315900" lon="-111.22876200">
<ele>2339.400</ele>
</trkpt>
<trkpt lat="34.43310000" lon="-111.22891500">
<ele>2337.600</ele>
</trkpt>
<trkpt lat="34.43299700" lon="-111.22904700">
<ele>2335.200</ele>
</trkpt>
<trkpt lat="34.43287500" lon="-111.22912000">
<ele>2333.400</ele>
</trkpt>
<trkpt lat="34.43272800" lon="-111.22915100">
<ele>2331.800</ele>
</trkpt>
<trkpt lat="34.43238500" lon="-111.22914700">
<ele>2330.200</ele>
</trkpt>
<trkpt lat="34.43211100" lon="-111.22917800">
<ele>2329.100</ele>
</trkpt>
<trkpt lat="34.43196900" lon="-111.22924700">
<ele>2328.900</ele>
</trkpt>
<trkpt lat="34.43192800" lon="-111.22929400">
<ele>2329.000</ele>
</trkpt>
<trkpt lat="34.43185500" lon="-111.22937600">
<ele>2329.300</ele>
</trkpt>
<trkpt lat="34.43178500" lon="-111.22955700">
<ele>2329.600</ele>
</trkpt>
<trkpt lat="34.43175400" lon="-111.22972600">
<ele>2329.700</ele>
</trkpt>
<trkpt lat="34.43173800" lon="-111.22996100">
<ele>2329.600</ele>
</trkpt>
<trkpt lat="34.43176100" lon="-111.23022500">
<ele>2326.800</ele>
</trkpt>
<trkpt lat="34.43185100" lon="-111.23050900">
<ele>2330.900</ele>
</trkpt>
<trkpt lat="34.43195900" lon="-111.23082400">
<ele>2334.200</ele>
</trkpt>
<trkpt lat="34.43206500" lon="-111.23130300">
<ele>2330.400</ele>
</trkpt>
<trkpt lat="34.43220300" lon="-111.23202900">
<ele>2328.000</ele>
</trkpt>
<trkpt lat="34.43238900" lon="-111.23301200">
<ele>2326.500</ele>
</trkpt>
<trkpt lat="34.43249600" lon="-111.23350700">
<ele>2325.800</ele>
</trkpt>
<trkpt lat="34.43259900" lon="-111.23402200">
<ele>2324.900</ele>
</trkpt>
<trkpt lat="34.43270700" lon="-111.23451600">
<ele>2324.400</ele>
</trkpt>
<trkpt lat="34.43278700" lon="-111.23487300">
<ele>2324.800</ele>
</trkpt>
<trkpt lat="34.43285800" lon="-111.23529400">
<ele>2325.500</ele>
</trkpt>
<trkpt lat="34.43300600" lon="-111.23598100">
<ele>2325.500</ele>
</trkpt>
<trkpt lat="34.43317200" lon="-111.23671700">
<ele>2325.100</ele>
</trkpt>
<trkpt lat="34.43331800" lon="-111.23711200">
<ele>2324.400</ele>
</trkpt>
<trkpt lat="34.43355400" lon="-111.23742000">
<ele>2323.500</ele>
</trkpt>
<trkpt lat="34.43387800" lon="-111.23771400">
<ele>2323.300</ele>
</trkpt>
<trkpt lat="34.43406400" lon="-111.23779400">
<ele>2323.400</ele>
</trkpt>
<trkpt lat="34.43454000" lon="-111.23783700">
<ele>2323.100</ele>
</trkpt>
<trkpt lat="34.43597400" lon="-111.23794000">
<ele>2324.000</ele>
</trkpt>
<trkpt lat="34.43743200" lon="-111.23808200">
<ele>2320.800</ele>
</trkpt>
<trkpt lat="34.43799700" lon="-111.23812800">
<ele>2318.000</ele>
</trkpt>
<trkpt lat="34.43913500" lon="-111.23822100">
<ele>2313.400</ele>
</trkpt>
<trkpt lat="34.43979400" lon="-111.23828900">
<ele>2312.700</ele>
</trkpt>
<trkpt lat="34.44037900" lon="-111.23834000">
<ele>2313.600</ele>
</trkpt>
<trkpt lat="34.44094100" lon="-111.23841900">
<ele>2316.200</ele>
</trkpt>
<trkpt lat="34.44125800" lon="-111.23843700">
<ele>2317.400</ele>
</trkpt>
<trkpt lat="34.44170900" lon="-111.23851800">
<ele>2318.400</ele>
</trkpt>
<trkpt lat="34.44226700" lon="-111.23861100">
<ele>2319.000</ele>
</trkpt>
<trkpt lat="34.44239800" lon="-111.23864400">
<ele>2318.900</ele>
</trkpt>
<trkpt lat="34.44248700" lon="-111.23865500">
<ele>2318.900</ele>
</trkpt>
<trkpt lat="34.44261100" lon="-111.23868000">
<ele>2318.800</ele>
</trkpt>
<trkpt lat="34.44292600" lon="-111.23874500">
<ele>2318.500</ele>
</trkpt>
<trkpt lat="34.44406600" lon="-111.23895800">
<ele>2316.400</ele>
</trkpt>
<trkpt lat="34.44433900" lon="-111.23901800">
<ele>2314.900</ele>
</trkpt>
<trkpt lat="34.44446800" lon="-111.23906500">
<ele>2314.200</ele>
</trkpt>
<trkpt lat="34.44455100" lon="-111.23913500">
<ele>2313.500</ele>
</trkpt>
<trkpt lat="34.44479700" lon="-111.23955300">
<ele>2312.000</ele>
</trkpt>
<trkpt lat="34.44503800" lon="-111.24008200">
<ele>2309.800</ele>
</trkpt>
<trkpt lat="34.44516200" lon="-111.24034800">
<ele>2308.300</ele>
</trkpt>
<trkpt lat="34.44540100" lon="-111.24071900">
<ele>2306.200</ele>
</trkpt>
<trkpt lat="34.44573800" lon="-111.24115900">
<ele>2301.500</ele>
</trkpt>
<trkpt lat="34.44587100" lon="-111.24125000">
<ele>2299.600</ele>
</trkpt>
<trkpt lat="34.44600800" lon="-111.24127400">
<ele>2298.200</ele>
</trkpt>
<trkpt lat="34.44609000" lon="-111.24127300">
<ele>2297.700</ele>
</trkpt>
<trkpt lat="34.44625000" lon="-111.24124300">
<ele>2297.200</ele>
</trkpt>
<trkpt lat="34.44637400" lon="-111.24126800">
<ele>2295.600</ele>
</trkpt>
<trkpt lat="34.44645900" lon="-111.24136400">
<ele>2293.700</ele>
</trkpt>
<trkpt lat="34.44654700" lon="-111.24162000">
<ele>2291.700</ele>
</trkpt>
<trkpt lat="34.44661200" lon="-111.24176900">
<ele>2290.400</ele>
</trkpt>
<trkpt lat="34.44665900" lon="-111.24187100">
<ele>2289.600</ele>
</trkpt>
<trkpt lat="34.44677600" lon="-111.24205300">
<ele>2287.400</ele>
</trkpt>
<trkpt lat="34.44687400" lon="-111.24215200">
<ele>2285.600</ele>
</trkpt>
<trkpt lat="34.44716800" lon="-111.24239300">
<ele>2283.200</ele>
</trkpt>
<trkpt lat="34.44753100" lon="-111.24261800">
<ele>2281.700</ele>
</trkpt>
<trkpt lat="34.44807300" lon="-111.24279700">
<ele>2280.000</ele>
</trkpt>
<trkpt lat="34.44838900" lon="-111.24290600">
<ele>2275.100</ele>
</trkpt>
<trkpt lat="34.44851700" lon="-111.24297400">
<ele>2271.900</ele>
</trkpt>
<trkpt lat="34.44870600" lon="-111.24310100">
<ele>2270.300</ele>
</trkpt>
<trkpt lat="34.44884900" lon="-111.24329000">
<ele>2271.500</ele>
</trkpt>
<trkpt lat="34.44900500" lon="-111.24350300">
<ele>2273.700</ele>
</trkpt>
<trkpt lat="34.44927300" lon="-111.24390000">
<ele>2277.500</ele>
</trkpt>
<trkpt lat="34.44953700" lon="-111.24429300">
<ele>2277.900</ele>
</trkpt>
<trkpt lat="34.44975600" lon="-111.24461200">
<ele>2277.100</ele>
</trkpt>
<trkpt lat="34.44998200" lon="-111.24496100">
<ele>2275.600</ele>
</trkpt>
<trkpt lat="34.45024500" lon="-111.24537100">
<ele>2272.700</ele>
</trkpt>
<trkpt lat="34.45056800" lon="-111.24584900">
<ele>2269.400</ele>
</trkpt>
<trkpt lat="34.45063200" lon="-111.24593500">
<ele>2268.800</ele>
</trkpt>
<trkpt lat="34.45090200" lon="-111.24630500">
<ele>2267.000</ele>
</trkpt>
<trkpt lat="34.45113500" lon="-111.24664000">
<ele>2265.300</ele>
</trkpt>
<trkpt lat="34.45128400" lon="-111.24688700">
<ele>2263.700</ele>
</trkpt>
<trkpt lat="34.45134700" lon="-111.24706300">
<ele>2259.300</ele>
</trkpt>
<trkpt lat="34.45144000" lon="-111.24745300">
<ele>2254.100</ele>
</trkpt>
<trkpt lat="34.45152900" lon="-111.24766600">
<ele>2251.700</ele>
</trkpt>
<trkpt lat="34.45163000" lon="-111.24784200">
<ele>2249.100</ele>
</trkpt>
<trkpt lat="34.45175800" lon="-111.24801500">
<ele>2247.500</ele>
</trkpt>
<trkpt lat="34.45193900" lon="-111.24829600">
<ele>2246.400</ele>
</trkpt>
<trkpt lat="34.45223100" lon="-111.24879000">
<ele>2242.300</ele>
</trkpt>
<trkpt lat="34.45232900" lon="-111.24891000">
<ele>2241.100</ele>
</trkpt>
<trkpt lat="34.45245500" lon="-111.24899800">
<ele>2239.800</ele>
</trkpt>
<trkpt lat="34.45258900" lon="-111.24906100">
<ele>2237.700</ele>
</trkpt>
<trkpt lat="34.45272900" lon="-111.24914800">
<ele>2234.000</ele>
</trkpt>
<trkpt lat="34.45290700" lon="-111.24925900">
<ele>2230.800</ele>
</trkpt>
<trkpt lat="34.45301800" lon="-111.24928600">
<ele>2229.700</ele>
</trkpt>
<trkpt lat="34.45316300" lon="-111.24929400">
<ele>2228.900</ele>
</trkpt>
<trkpt lat="34.45339600" lon="-111.24925400">
<ele>2227.100</ele>
</trkpt>
<trkpt lat="34.45367300" lon="-111.24921200">
<ele>2225.100</ele>
</trkpt>
<trkpt lat="34.45379400" lon="-111.24920600">
<ele>2223.400</ele>
</trkpt>
<trkpt lat="34.45391700" lon="-111.24921900">
<ele>2221.600</ele>
</trkpt>
<trkpt lat="34.45400900" lon="-111.24928000">
<ele>2219.900</ele>
</trkpt>
<trkpt lat="34.45408800" lon="-111.24936000">
<ele>2219.300</ele>
</trkpt>
<trkpt lat="34.45414100" lon="-111.24944900">
<ele>2218.200</ele>
</trkpt>
<trkpt lat="34.45418100" lon="-111.24956600">
<ele>2217.100</ele>
</trkpt>
<trkpt lat="34.45419000" lon="-111.24971300">
<ele>2214.600</ele>
</trkpt>
<trkpt lat="34.45415900" lon="-111.24987700">
<ele>2212.000</ele>
</trkpt>
<trkpt lat="34.45410000" lon="-111.25009300">
<ele>2209.700</ele>
</trkpt>
<trkpt lat="34.45398600" lon="-111.25040400">
<ele>2209.200</ele>
</trkpt>
<trkpt lat="34.45380800" lon="-111.25078200">
<ele>2209.800</ele>
</trkpt>
<trkpt lat="34.45379000" lon="-111.25082000">
<ele>2209.800</ele>
</trkpt>
<trkpt lat="34.45352200" lon="-111.25123600">
<ele>2211.500</ele>
</trkpt>
<trkpt lat="34.45328900" lon="-111.25155800">
<ele>2215.200</ele>
</trkpt>
<trkpt lat="34.45316700" lon="-111.25174400">
<ele>2219.100</ele>
</trkpt>
<trkpt lat="34.45313500" lon="-111.25182300">
<ele>2220.700</ele>
</trkpt>
<trkpt lat="34.45311500" lon="-111.25193300">
<ele>2222.000</ele>
</trkpt>
<trkpt lat="34.45311200" lon="-111.25204400">
<ele>2224.100</ele>
</trkpt>
<trkpt lat="34.45314300" lon="-111.25216500">
<ele>2226.500</ele>
</trkpt>
<trkpt lat="34.45319500" lon="-111.25229200">
<ele>2229.200</ele>
</trkpt>
<trkpt lat="34.45326400" lon="-111.25237200">
<ele>2231.100</ele>
</trkpt>
<trkpt lat="34.45334500" lon="-111.25242600">
<ele>2231.900</ele>
</trkpt>
<trkpt lat="34.45347500" lon="-111.25245500">
<ele>2232.900</ele>
</trkpt>
<trkpt lat="34.45360600" lon="-111.25244700">
<ele>2233.000</ele>
</trkpt>
<trkpt lat="34.45373600" lon="-111.25239200">
<ele>2232.900</ele>
</trkpt>
<trkpt lat="34.45386700" lon="-111.25235700">
<ele>2232.400</ele>
</trkpt>
<trkpt lat="34.45395700" lon="-111.25235300">
<ele>2232.300</ele>
</trkpt>
<trkpt lat="34.45405300" lon="-111.25236500">
<ele>2231.900</ele>
</trkpt>
<trkpt lat="34.45415300" lon="-111.25238800">
<ele>2232.000</ele>
</trkpt>
<trkpt lat="34.45432800" lon="-111.25249000">
<ele>2233.100</ele>
</trkpt>
<trkpt lat="34.45457900" lon="-111.25260300">
<ele>2235.900</ele>
</trkpt>
<trkpt lat="34.45478500" lon="-111.25267400">
<ele>2238.600</ele>
</trkpt>
<trkpt lat="34.45506300" lon="-111.25275100">
<ele>2241.600</ele>
</trkpt>
<trkpt lat="34.45528500" lon="-111.25278300">
<ele>2243.800</ele>
</trkpt>
<trkpt lat="34.45556100" lon="-111.25281200">
<ele>2244.600</ele>
</trkpt>
<trkpt lat="34.45571100" lon="-111.25286700">
<ele>2245.000</ele>
</trkpt>
<trkpt lat="34.45580700" lon="-111.25291700">
<ele>2245.300</ele>
</trkpt>
<trkpt lat="34.45592400" lon="-111.25299400">
<ele>2245.900</ele>
</trkpt>
<trkpt lat="34.45602000" lon="-111.25307300">
<ele>2246.300</ele>
</trkpt>
<trkpt lat="34.45608900" lon="-111.25315700">
<ele>2246.600</ele>
</trkpt>
<trkpt lat="34.45612000" lon="-111.25325800">
<ele>2246.800</ele>
</trkpt>
<trkpt lat="34.45613000" lon="-111.25334300">
<ele>2246.900</ele>
</trkpt>
<trkpt lat="34.45612200" lon="-111.25343700">
<ele>2246.900</ele>
</trkpt>
<trkpt lat="34.45608400" lon="-111.25351600">
<ele>2246.800</ele>
</trkpt>
<trkpt lat="34.45601900" lon="-111.25356800">
<ele>2247.000</ele>
</trkpt>
<trkpt lat="34.45591900" lon="-111.25364500">
<ele>2247.500</ele>
</trkpt>
<trkpt lat="34.45569600" lon="-111.25376700">
<ele>2249.800</ele>
</trkpt>
<trkpt lat="34.45546800" lon="-111.25388900">
<ele>2252.900</ele>
</trkpt>
<trkpt lat="34.45518600" lon="-111.25403800">
<ele>2255.100</ele>
</trkpt>
<trkpt lat="34.45472800" lon="-111.25431000">
<ele>2265.300</ele>
</trkpt>
<trkpt lat="34.45440400" lon="-111.25446800">
<ele>2269.800</ele>
</trkpt>
<trkpt lat="34.45405100" lon="-111.25466900">
<ele>2273.500</ele>
</trkpt>
<trkpt lat="34.45373300" lon="-111.25486400">
<ele>2278.400</ele>
</trkpt>
<trkpt lat="34.45350400" lon="-111.25510000">
<ele>2280.900</ele>
</trkpt>
<trkpt lat="34.45338400" lon="-111.25527300">
<ele>2281.900</ele>
</trkpt>
<trkpt lat="34.45331000" lon="-111.25541600">
<ele>2282.500</ele>
</trkpt>
<trkpt lat="34.45322500" lon="-111.25566300">
<ele>2283.200</ele>
</trkpt>
<trkpt lat="34.45307400" lon="-111.25632800">
<ele>2282.000</ele>
</trkpt>
<trkpt lat="34.45303800" lon="-111.25664700">
<ele>2280.400</ele>
</trkpt>
<trkpt lat="34.45303700" lon="-111.25675900">
<ele>2280.100</ele>
</trkpt>
<trkpt lat="34.45302000" lon="-111.25704300">
<ele>2280.300</ele>
</trkpt>
<trkpt lat="34.45299700" lon="-111.25736500">
<ele>2282.500</ele>
</trkpt>
<trkpt lat="34.45294300" lon="-111.25758100">
<ele>2282.800</ele>
</trkpt>
<trkpt lat="34.45285700" lon="-111.25776100">
<ele>2282.700</ele>
</trkpt>
<trkpt lat="34.45266000" lon="-111.25800600">
<ele>2283.200</ele>
</trkpt>
<trkpt lat="34.45248800" lon="-111.25818100">
<ele>2280.600</ele>
</trkpt>
<trkpt lat="34.45235000" lon="-111.25830200">
<ele>2276.800</ele>
</trkpt>
<trkpt lat="34.45224200" lon="-111.25838600">
<ele>2274.100</ele>
</trkpt>
<trkpt lat="34.45206500" lon="-111.25847400">
<ele>2271.200</ele>
</trkpt>
<trkpt lat="34.45196700" lon="-111.25853800">
<ele>2269.500</ele>
</trkpt>
<trkpt lat="34.45190400" lon="-111.25863800">
<ele>2267.300</ele>
</trkpt>
<trkpt lat="34.45187200" lon="-111.25885600">
<ele>2267.000</ele>
</trkpt>
<trkpt lat="34.45184800" lon="-111.25897500">
<ele>2267.000</ele>
</trkpt>
<trkpt lat="34.45186200" lon="-111.25929700">
<ele>2267.000</ele>
</trkpt>
<trkpt lat="34.45191200" lon="-111.25971000">
<ele>2268.900</ele>
</trkpt>
<trkpt lat="34.45191200" lon="-111.25972400">
<ele>2268.900</ele>
</trkpt>
<trkpt lat="34.45192900" lon="-111.26025800">
<ele>2269.500</ele>
</trkpt>
<trkpt lat="34.45189300" lon="-111.26059700">
<ele>2268.200</ele>
</trkpt>
<trkpt lat="34.45183000" lon="-111.26086500">
<ele>2266.400</ele>
</trkpt>
<trkpt lat="34.45173200" lon="-111.26109000">
<ele>2265.500</ele>
</trkpt>
<trkpt lat="34.45153600" lon="-111.26147500">
<ele>2266.300</ele>
</trkpt>
<trkpt lat="34.45110000" lon="-111.26193200">
<ele>2268.900</ele>
</trkpt>
<trkpt lat="34.45104900" lon="-111.26197500">
<ele>2269.400</ele>
</trkpt>
<trkpt lat="34.45098100" lon="-111.26203300">
<ele>2270.100</ele>
</trkpt>
<trkpt lat="34.45098100" lon="-111.26203300">
<ele>2270.100</ele>
</trkpt>
<trkpt lat="34.45067500" lon="-111.26229500">
<ele>2273.300</ele>
</trkpt>
<trkpt lat="34.45045500" lon="-111.26255600">
<ele>2276.400</ele>
</trkpt>
<trkpt lat="34.45010100" lon="-111.26316500">
<ele>2282.300</ele>
</trkpt>
<trkpt lat="34.44970600" lon="-111.26361800">
<ele>2288.200</ele>
</trkpt>
<trkpt lat="34.44941000" lon="-111.26408800">
<ele>2290.600</ele>
</trkpt>
<trkpt lat="34.44914000" lon="-111.26466400">
<ele>2293.300</ele>
</trkpt>
<trkpt lat="34.44901100" lon="-111.26480700">
<ele>2293.900</ele>
</trkpt>
<trkpt lat="34.44892400" lon="-111.26497800">
<ele>2294.600</ele>
</trkpt>
<trkpt lat="34.44884900" lon="-111.26521300">
<ele>2294.500</ele>
</trkpt>
<trkpt lat="34.44880100" lon="-111.26541600">
<ele>2295.100</ele>
</trkpt>
<trkpt lat="34.44869800" lon="-111.26564400">
<ele>2296.500</ele>
</trkpt>
<trkpt lat="34.44846600" lon="-111.26598400">
<ele>2301.400</ele>
</trkpt>
<trkpt lat="34.44803700" lon="-111.26650900">
<ele>2306.800</ele>
</trkpt>
<trkpt lat="34.44677800" lon="-111.26771300">
<ele>2305.200</ele>
</trkpt>
<trkpt lat="34.44663000" lon="-111.26791500">
<ele>2305.400</ele>
</trkpt>
<trkpt lat="34.44656200" lon="-111.26809400">
<ele>2305.600</ele>
</trkpt>
<trkpt lat="34.44649000" lon="-111.26838200">
<ele>2306.100</ele>
</trkpt>
<trkpt lat="34.44629000" lon="-111.26943600">
<ele>2306.900</ele>
</trkpt>
<trkpt lat="34.44617900" lon="-111.26998100">
<ele>2306.800</ele>
</trkpt>
<trkpt lat="34.44606500" lon="-111.27037900">
<ele>2306.000</ele>
</trkpt>
<trkpt lat="34.44590100" lon="-111.27066900">
<ele>2305.500</ele>
</trkpt>
<trkpt lat="34.44561000" lon="-111.27088800">
<ele>2305.400</ele>
</trkpt>
<trkpt lat="34.44526000" lon="-111.27116800">
<ele>2305.600</ele>
</trkpt>
<trkpt lat="34.44504500" lon="-111.27136900">
<ele>2307.200</ele>
</trkpt>
<trkpt lat="34.44493100" lon="-111.27153500">
<ele>2309.400</ele>
</trkpt>
<trkpt lat="34.44489300" lon="-111.27171500">
<ele>2310.800</ele>
</trkpt>
<trkpt lat="34.44491100" lon="-111.27196300">
<ele>2312.700</ele>
</trkpt>
<trkpt lat="34.44503400" lon="-111.27221300">
<ele>2312.500</ele>
</trkpt>
<trkpt lat="34.44545500" lon="-111.27270200">
<ele>2309.300</ele>
</trkpt>
<trkpt lat="34.44564900" lon="-111.27290600">
<ele>2307.800</ele>
</trkpt>
<trkpt lat="34.44567100" lon="-111.27300200">
<ele>2307.900</ele>
</trkpt>
<trkpt lat="34.44565200" lon="-111.27310700">
<ele>2307.900</ele>
</trkpt>
<trkpt lat="34.44556500" lon="-111.27322500">
<ele>2307.100</ele>
</trkpt>
<trkpt lat="34.44544900" lon="-111.27323000">
<ele>2306.300</ele>
</trkpt>
<trkpt lat="34.44497400" lon="-111.27306500">
<ele>2303.000</ele>
</trkpt>
<trkpt lat="34.44482900" lon="-111.27306200">
<ele>2299.800</ele>
</trkpt>
<trkpt lat="34.44457500" lon="-111.27305700">
<ele>2294.100</ele>
</trkpt>
<trkpt lat="34.44410700" lon="-111.27322100">
<ele>2297.200</ele>
</trkpt>
<trkpt lat="34.44375600" lon="-111.27333500">
<ele>2304.800</ele>
</trkpt>
<trkpt lat="34.44352600" lon="-111.27340400">
<ele>2306.100</ele>
</trkpt>
<trkpt lat="34.44338900" lon="-111.27357600">
<ele>2309.000</ele>
</trkpt>
<trkpt lat="34.44323200" lon="-111.27402100">
<ele>2309.900</ele>
</trkpt>
<trkpt lat="34.44316700" lon="-111.27431600">
<ele>2311.100</ele>
</trkpt>
<trkpt lat="34.44299900" lon="-111.27463300">
<ele>2309.400</ele>
</trkpt>
<trkpt lat="34.44257800" lon="-111.27523600">
<ele>2299.700</ele>
</trkpt>
<trkpt lat="34.44208900" lon="-111.27579100">
<ele>2303.400</ele>
</trkpt>
<trkpt lat="34.44155900" lon="-111.27657200">
<ele>2299.500</ele>
</trkpt>
<trkpt lat="34.44093100" lon="-111.27716500">
<ele>2306.900</ele>
</trkpt>
<trkpt lat="34.44023300" lon="-111.27780600">
<ele>2303.400</ele>
</trkpt>
<trkpt lat="34.44010900" lon="-111.27811800">
<ele>2305.000</ele>
</trkpt>
<trkpt lat="34.44017000" lon="-111.27829400">
<ele>2305.300</ele>
</trkpt>
<trkpt lat="34.44031400" lon="-111.27847800">
<ele>2305.500</ele>
</trkpt>
<trkpt lat="34.44040600" lon="-111.27860700">
<ele>2306.200</ele>
</trkpt>
<trkpt lat="34.44042700" lon="-111.27863500">
<ele>2306.500</ele>
</trkpt>
<trkpt lat="34.44049700" lon="-111.27881300">
<ele>2307.700</ele>
</trkpt>
<trkpt lat="34.44049700" lon="-111.27900500">
<ele>2309.000</ele>
</trkpt>
<trkpt lat="34.44043100" lon="-111.27928700">
<ele>2310.600</ele>
</trkpt>
<trkpt lat="34.44040600" lon="-111.27944700">
<ele>2310.200</ele>
</trkpt>
<trkpt lat="34.44033400" lon="-111.27990300">
<ele>2307.600</ele>
</trkpt>
<trkpt lat="34.44029600" lon="-111.28144600">
<ele>2306.600</ele>
</trkpt>
<trkpt lat="34.44027600" lon="-111.28208200">
<ele>2303.800</ele>
</trkpt>
<trkpt lat="34.44024800" lon="-111.28264500">
<ele>2304.900</ele>
</trkpt>
<trkpt lat="34.44016800" lon="-111.28302000">
<ele>2304.900</ele>
</trkpt>
<trkpt lat="34.43990500" lon="-111.28366900">
<ele>2314.700</ele>
</trkpt>
<trkpt lat="34.43984100" lon="-111.28393500">
<ele>2317.900</ele>
</trkpt>
<trkpt lat="34.43981600" lon="-111.28446000">
<ele>2319.200</ele>
</trkpt>
<trkpt lat="34.43980500" lon="-111.28470500">
<ele>2316.500</ele>
</trkpt>
<trkpt lat="34.43982100" lon="-111.28496500">
<ele>2312.900</ele>
</trkpt>
<trkpt lat="34.43993600" lon="-111.28517100">
<ele>2310.400</ele>
</trkpt>
<trkpt lat="34.44031400" lon="-111.28564600">
<ele>2320.400</ele>
</trkpt>
<trkpt lat="34.44031700" lon="-111.28587200">
<ele>2322.600</ele>
</trkpt>
<trkpt lat="34.44025600" lon="-111.28624700">
<ele>2321.200</ele>
</trkpt>
<trkpt lat="34.44020300" lon="-111.28671900">
<ele>2315.300</ele>
</trkpt>
<trkpt lat="34.44016600" lon="-111.28705700">
<ele>2312.600</ele>
</trkpt>
<trkpt lat="34.44004700" lon="-111.28732400">
<ele>2311.100</ele>
</trkpt>
<trkpt lat="34.43998300" lon="-111.28738100">
<ele>2311.000</ele>
</trkpt>
<trkpt lat="34.43979200" lon="-111.28744000">
<ele>2311.400</ele>
</trkpt>
<trkpt lat="34.43936300" lon="-111.28746500">
<ele>2312.200</ele>
</trkpt>
<trkpt lat="34.43902400" lon="-111.28748600">
<ele>2308.500</ele>
</trkpt>
<trkpt lat="34.43879400" lon="-111.28761200">
<ele>2307.600</ele>
</trkpt>
<trkpt lat="34.43865500" lon="-111.28780000">
<ele>2308.000</ele>
</trkpt>
<trkpt lat="34.43843600" lon="-111.28818600">
<ele>2310.100</ele>
</trkpt>
<trkpt lat="34.43829000" lon="-111.28829900">
<ele>2313.700</ele>
</trkpt>
<trkpt lat="34.43796300" lon="-111.28839000">
<ele>2317.500</ele>
</trkpt>
<trkpt lat="34.43760200" lon="-111.28851300">
<ele>2318.100</ele>
</trkpt>
<trkpt lat="34.43748700" lon="-111.28859100">
<ele>2317.700</ele>
</trkpt>
<trkpt lat="34.43742500" lon="-111.28872500">
<ele>2317.500</ele>
</trkpt>
<trkpt lat="34.43735600" lon="-111.28907400">
<ele>2317.300</ele>
</trkpt>
<trkpt lat="34.43736700" lon="-111.28949800">
<ele>2316.900</ele>
</trkpt>
<trkpt lat="34.43741600" lon="-111.28984600">
<ele>2313.800</ele>
</trkpt>
<trkpt lat="34.43767600" lon="-111.29074500">
<ele>2304.300</ele>
</trkpt>
<trkpt lat="34.43785200" lon="-111.29117700">
<ele>2294.900</ele>
</trkpt>
<trkpt lat="34.43787600" lon="-111.29148300">
<ele>2290.900</ele>
</trkpt>
<trkpt lat="34.43788100" lon="-111.29170700">
<ele>2290.300</ele>
</trkpt>
<trkpt lat="34.43789600" lon="-111.29208900">
<ele>2290.600</ele>
</trkpt>
<trkpt lat="34.43785900" lon="-111.29264400">
<ele>2291.600</ele>
</trkpt>
<trkpt lat="34.43778800" lon="-111.29287200">
<ele>2293.800</ele>
</trkpt>
<trkpt lat="34.43769700" lon="-111.29304900">
<ele>2291.500</ele>
</trkpt>
<trkpt lat="34.43752700" lon="-111.29331500">
<ele>2289.200</ele>
</trkpt>
<trkpt lat="34.43721000" lon="-111.29381300">
<ele>2295.500</ele>
</trkpt>
<trkpt lat="34.43710900" lon="-111.29412000">
<ele>2293.000</ele>
</trkpt>
<trkpt lat="34.43710200" lon="-111.29429100">
<ele>2290.900</ele>
</trkpt>
<trkpt lat="34.43714600" lon="-111.29451900">
<ele>2293.200</ele>
</trkpt>
<trkpt lat="34.43723500" lon="-111.29465300">
<ele>2293.400</ele>
</trkpt>
<trkpt lat="34.43736700" lon="-111.29493200">
<ele>2290.400</ele>
</trkpt>
<trkpt lat="34.43748500" lon="-111.29527700">
<ele>2291.100</ele>
</trkpt>
<trkpt lat="34.43748900" lon="-111.29606100">
<ele>2293.000</ele>
</trkpt>
<trkpt lat="34.43749100" lon="-111.29621700">
<ele>2292.500</ele>
</trkpt>
<trkpt lat="34.43749900" lon="-111.29635200">
<ele>2292.100</ele>
</trkpt>
<trkpt lat="34.43755100" lon="-111.29647300">
<ele>2292.500</ele>
</trkpt>
<trkpt lat="34.43777400" lon="-111.29661900">
<ele>2294.100</ele>
</trkpt>
<trkpt lat="34.43805500" lon="-111.29668100">
<ele>2295.100</ele>
</trkpt>
<trkpt lat="34.43864600" lon="-111.29719000">
<ele>2305.600</ele>
</trkpt>
<trkpt lat="34.43885200" lon="-111.29737300">
<ele>2306.500</ele>
</trkpt>
<trkpt lat="34.43891400" lon="-111.29744000">
<ele>2307.100</ele>
</trkpt>
<trkpt lat="34.43891500" lon="-111.29751900">
<ele>2307.600</ele>
</trkpt>
<trkpt lat="34.43888100" lon="-111.29757900">
<ele>2307.600</ele>
</trkpt>
<trkpt lat="34.43878500" lon="-111.29763500">
<ele>2307.500</ele>
</trkpt>
<trkpt lat="34.43857400" lon="-111.29762700">
<ele>2307.300</ele>
</trkpt>
<trkpt lat="34.43825100" lon="-111.29761800">
<ele>2307.500</ele>
</trkpt>
<trkpt lat="34.43776900" lon="-111.29768000">
<ele>2308.000</ele>
</trkpt>
<trkpt lat="34.43719900" lon="-111.29779900">
<ele>2312.200</ele>
</trkpt>
<trkpt lat="34.43707000" lon="-111.29783500">
<ele>2314.500</ele>
</trkpt>
<trkpt lat="34.43665100" lon="-111.29801100">
<ele>2320.000</ele>
</trkpt>
<trkpt lat="34.43633600" lon="-111.29838400">
<ele>2322.000</ele>
</trkpt>
<trkpt lat="34.43625500" lon="-111.29856100">
<ele>2321.200</ele>
</trkpt>
<trkpt lat="34.43616400" lon="-111.29877000">
<ele>2320.500</ele>
</trkpt>
<trkpt lat="34.43597200" lon="-111.29906800">
<ele>2320.300</ele>
</trkpt>
<trkpt lat="34.43578600" lon="-111.29930700">
<ele>2321.600</ele>
</trkpt>
<trkpt lat="34.43541400" lon="-111.29964200">
<ele>2321.900</ele>
</trkpt>
<trkpt lat="34.43529200" lon="-111.29987300">
<ele>2321.100</ele>
</trkpt>
<trkpt lat="34.43523500" lon="-111.30012500">
<ele>2320.800</ele>
</trkpt>
<trkpt lat="34.43522600" lon="-111.30044400">
<ele>2319.200</ele>
</trkpt>
<trkpt lat="34.43523500" lon="-111.30080000">
<ele>2316.700</ele>
</trkpt>
<trkpt lat="34.43536800" lon="-111.30147400">
<ele>2310.400</ele>
</trkpt>
<trkpt lat="34.43542100" lon="-111.30196500">
<ele>2307.400</ele>
</trkpt>
<trkpt lat="34.43540300" lon="-111.30257100">
<ele>2305.700</ele>
</trkpt>
<trkpt lat="34.43527300" lon="-111.30364900">
<ele>2306.800</ele>
</trkpt>
<trkpt lat="34.43515300" lon="-111.30435400">
<ele>2309.700</ele>
</trkpt>
<trkpt lat="34.43507600" lon="-111.30465000">
<ele>2309.800</ele>
</trkpt>
<trkpt lat="34.43502700" lon="-111.30483300">
<ele>2309.300</ele>
</trkpt>
<trkpt lat="34.43495800" lon="-111.30518100">
<ele>2307.800</ele>
</trkpt>
<trkpt lat="34.43484400" lon="-111.30578700">
<ele>2307.100</ele>
</trkpt>
<trkpt lat="34.43474500" lon="-111.30606600">
<ele>2307.000</ele>
</trkpt>
<trkpt lat="34.43464200" lon="-111.30625000">
<ele>2307.100</ele>
</trkpt>
<trkpt lat="34.43448700" lon="-111.30648200">
<ele>2307.100</ele>
</trkpt>
<trkpt lat="34.43445200" lon="-111.30653500">
<ele>2307.700</ele>
</trkpt>
<trkpt lat="34.43432100" lon="-111.30671300">
<ele>2304.900</ele>
</trkpt>
<trkpt lat="34.43427600" lon="-111.30696700">
<ele>2304.600</ele>
</trkpt>
<trkpt lat="34.43433600" lon="-111.30715900">
<ele>2304.200</ele>
</trkpt>
<trkpt lat="34.43441600" lon="-111.30734700">
<ele>2303.300</ele>
</trkpt>
<trkpt lat="34.43452400" lon="-111.30757200">
<ele>2301.100</ele>
</trkpt>
<trkpt lat="34.43456000" lon="-111.30762800">
<ele>2300.400</ele>
</trkpt>
<trkpt lat="34.43466200" lon="-111.30778600">
<ele>2297.100</ele>
</trkpt>
<trkpt lat="34.43486000" lon="-111.30792900">
<ele>2294.700</ele>
</trkpt>
<trkpt lat="34.43505700" lon="-111.30801300">
<ele>2292.900</ele>
</trkpt>
<trkpt lat="34.43518200" lon="-111.30810200">
<ele>2292.200</ele>
</trkpt>
<trkpt lat="34.43531000" lon="-111.30821400">
<ele>2291.700</ele>
</trkpt>
<trkpt lat="34.43565900" lon="-111.30844600">
<ele>2292.400</ele>
</trkpt>
<trkpt lat="34.43592400" lon="-111.30850800">
<ele>2295.400</ele>
</trkpt>
<trkpt lat="34.43658200" lon="-111.30870800">
<ele>2305.600</ele>
</trkpt>
<trkpt lat="34.43681200" lon="-111.30887400">
<ele>2306.800</ele>
</trkpt>
<trkpt lat="34.43703400" lon="-111.30909500">
<ele>2306.900</ele>
</trkpt>
<trkpt lat="34.43728500" lon="-111.30935200">
<ele>2305.500</ele>
</trkpt>
<trkpt lat="34.43736300" lon="-111.30943200">
<ele>2304.800</ele>
</trkpt>
<trkpt lat="34.43768500" lon="-111.30968400">
<ele>2298.300</ele>
</trkpt>
<trkpt lat="34.43774900" lon="-111.30975800">
<ele>2296.400</ele>
</trkpt>
<trkpt lat="34.43776500" lon="-111.30985000">
<ele>2295.100</ele>
</trkpt>
<trkpt lat="34.43772700" lon="-111.31000600">
<ele>2293.100</ele>
</trkpt>
<trkpt lat="34.43764000" lon="-111.31014900">
<ele>2292.600</ele>
</trkpt>
<trkpt lat="34.43751900" lon="-111.31041800">
<ele>2292.600</ele>
</trkpt>
<trkpt lat="34.43740000" lon="-111.31083200">
<ele>2291.800</ele>
</trkpt>
<trkpt lat="34.43730800" lon="-111.31126900">
<ele>2284.800</ele>
</trkpt>
<trkpt lat="34.43731000" lon="-111.31156300">
<ele>2280.300</ele>
</trkpt>
<trkpt lat="34.43734500" lon="-111.31188100">
<ele>2277.700</ele>
</trkpt>
<trkpt lat="34.43735500" lon="-111.31227400">
<ele>2268.300</ele>
</trkpt>
<trkpt lat="34.43732700" lon="-111.31247600">
<ele>2266.700</ele>
</trkpt>
<trkpt lat="34.43717200" lon="-111.31269600">
<ele>2264.900</ele>
</trkpt>
<trkpt lat="34.43694700" lon="-111.31291300">
<ele>2265.000</ele>
</trkpt>
<trkpt lat="34.43659200" lon="-111.31328500">
<ele>2263.300</ele>
</trkpt>
<trkpt lat="34.43648400" lon="-111.31349300">
<ele>2263.000</ele>
</trkpt>
<trkpt lat="34.43643400" lon="-111.31373900">
<ele>2263.900</ele>
</trkpt>
<trkpt lat="34.43640700" lon="-111.31409100">
<ele>2264.700</ele>
</trkpt>
<trkpt lat="34.43633000" lon="-111.31445800">
<ele>2264.600</ele>
</trkpt>
<trkpt lat="34.43623000" lon="-111.31476400">
<ele>2265.500</ele>
</trkpt>
<trkpt lat="34.43610200" lon="-111.31499500">
<ele>2267.800</ele>
</trkpt>
<trkpt lat="34.43569700" lon="-111.31562400">
<ele>2270.700</ele>
</trkpt>
<trkpt lat="34.43513100" lon="-111.31646200">
<ele>2271.100</ele>
</trkpt>
<trkpt lat="34.43500900" lon="-111.31672500">
<ele>2272.700</ele>
</trkpt>
<trkpt lat="34.43489500" lon="-111.31708400">
<ele>2273.200</ele>
</trkpt>
<trkpt lat="34.43447300" lon="-111.31813000">
<ele>2274.300</ele>
</trkpt>
<trkpt lat="34.43415200" lon="-111.31891100">
<ele>2277.400</ele>
</trkpt>
<trkpt lat="34.43403000" lon="-111.31922500">
<ele>2278.500</ele>
</trkpt>
<trkpt lat="34.43374700" lon="-111.32001300">
<ele>2279.600</ele>
</trkpt>
<trkpt lat="34.43349700" lon="-111.32067800">
<ele>2279.500</ele>
</trkpt>
<trkpt lat="34.43329200" lon="-111.32110100">
<ele>2281.500</ele>
</trkpt>
<trkpt lat="34.43308600" lon="-111.32139600">
<ele>2282.500</ele>
</trkpt>
<trkpt lat="34.43274800" lon="-111.32181000">
<ele>2283.300</ele>
</trkpt>
<trkpt lat="34.43232100" lon="-111.32230900">
<ele>2285.200</ele>
</trkpt>
<trkpt lat="34.43201500" lon="-111.32272800">
<ele>2284.400</ele>
</trkpt>
<trkpt lat="34.43170100" lon="-111.32310000">
<ele>2287.400</ele>
</trkpt>
<trkpt lat="34.43141400" lon="-111.32336900">
<ele>2289.800</ele>
</trkpt>
<trkpt lat="34.43127500" lon="-111.32345600">
<ele>2290.600</ele>
</trkpt>
<trkpt lat="34.43107300" lon="-111.32358300">
<ele>2291.200</ele>
</trkpt>
<trkpt lat="34.43075100" lon="-111.32376800">
<ele>2291.400</ele>
</trkpt>
<trkpt lat="34.42931500" lon="-111.32435000">
<ele>2291.400</ele>
</trkpt>
<trkpt lat="34.42835000" lon="-111.32479000">
<ele>2291.700</ele>
</trkpt>
<trkpt lat="34.42766000" lon="-111.32498300">
<ele>2292.300</ele>
</trkpt>
<trkpt lat="34.42704100" lon="-111.32535400">
<ele>2293.200</ele>
</trkpt>
<trkpt lat="34.42673400" lon="-111.32568200">
<ele>2294.600</ele>
</trkpt>
<trkpt lat="34.42634100" lon="-111.32616900">
<ele>2301.100</ele>
</trkpt>
<trkpt lat="34.42619200" lon="-111.32640300">
<ele>2302.200</ele>
</trkpt>
<trkpt lat="34.42613600" lon="-111.32649100">
<ele>2302.400</ele>
</trkpt>
<trkpt lat="34.42582800" lon="-111.32702500">
<ele>2303.800</ele>
</trkpt>
<trkpt lat="34.42526200" lon="-111.32775700">
<ele>2304.600</ele>
</trkpt>
<trkpt lat="34.42516200" lon="-111.32791200">
<ele>2304.500</ele>
</trkpt>
<trkpt lat="34.42503800" lon="-111.32830700">
<ele>2307.800</ele>
</trkpt>
<trkpt lat="34.42499900" lon="-111.32876000">
<ele>2316.300</ele>
</trkpt>
<trkpt lat="34.42499900" lon="-111.32909200">
<ele>2317.000</ele>
</trkpt>
<trkpt lat="34.42492100" lon="-111.32940300">
<ele>2317.100</ele>
</trkpt>
<trkpt lat="34.42470400" lon="-111.32997800">
<ele>2318.200</ele>
</trkpt>
<trkpt lat="34.42470500" lon="-111.33023600">
<ele>2319.200</ele>
</trkpt>
<trkpt lat="34.42479500" lon="-111.33032400">
<ele>2320.300</ele>
</trkpt>
<trkpt lat="34.42486800" lon="-111.33035900">
<ele>2321.000</ele>
</trkpt>
<trkpt lat="34.42525600" lon="-111.33039200">
<ele>2323.800</ele>
</trkpt>
<trkpt lat="34.42551400" lon="-111.33043900">
<ele>2324.400</ele>
</trkpt>
<trkpt lat="34.42574100" lon="-111.33056100">
<ele>2325.200</ele>
</trkpt>
<trkpt lat="34.42592700" lon="-111.33072600">
<ele>2324.900</ele>
</trkpt>
<trkpt lat="34.42601900" lon="-111.33084100">
<ele>2325.300</ele>
</trkpt>
<trkpt lat="34.42625600" lon="-111.33111500">
<ele>2324.500</ele>
</trkpt>
<trkpt lat="34.42641000" lon="-111.33132700">
<ele>2323.900</ele>
</trkpt>
<trkpt lat="34.42642300" lon="-111.33131600">
<ele>2323.600</ele>
</trkpt>
<trkpt lat="34.42723300" lon="-111.33223200">
<ele>2318.100</ele>
</trkpt>
<trkpt lat="34.42733200" lon="-111.33233100">
<ele>2317.800</ele>
</trkpt>
<trkpt lat="34.42733200" lon="-111.33233100">
<ele>2317.800</ele>
</trkpt>
<trkpt lat="34.42758300" lon="-111.33258200">
<ele>2317.300</ele>
</trkpt>
<trkpt lat="34.42787100" lon="-111.33276800">
<ele>2317.600</ele>
</trkpt>
<trkpt lat="34.42814000" lon="-111.33284200">
<ele>2318.200</ele>
</trkpt>
<trkpt lat="34.42836400" lon="-111.33282600">
<ele>2319.100</ele>
</trkpt>
<trkpt lat="34.42882800" lon="-111.33277800">
<ele>2320.300</ele>
</trkpt>
<trkpt lat="34.42907300" lon="-111.33274700">
<ele>2320.200</ele>
</trkpt>
<trkpt lat="34.42930700" lon="-111.33274000">
<ele>2319.900</ele>
</trkpt>
<trkpt lat="34.42976800" lon="-111.33280700">
<ele>2315.900</ele>
</trkpt>
<trkpt lat="34.43001600" lon="-111.33286800">
<ele>2312.800</ele>
</trkpt>
<trkpt lat="34.43018400" lon="-111.33294200">
<ele>2310.800</ele>
</trkpt>
<trkpt lat="34.43046300" lon="-111.33314500">
<ele>2307.600</ele>
</trkpt>
<trkpt lat="34.43073100" lon="-111.33341700">
<ele>2306.700</ele>
</trkpt>
<trkpt lat="34.43112800" lon="-111.33382700">
<ele>2313.300</ele>
</trkpt>
<trkpt lat="34.43133900" lon="-111.33403000">
<ele>2317.700</ele>
</trkpt>
<trkpt lat="34.43168400" lon="-111.33436700">
<ele>2318.500</ele>
</trkpt>
<trkpt lat="34.43223500" lon="-111.33482800">
<ele>2316.700</ele>
</trkpt>
<trkpt lat="34.43263200" lon="-111.33515000">
<ele>2316.100</ele>
</trkpt>
<trkpt lat="34.43298500" lon="-111.33539400">
<ele>2315.400</ele>
</trkpt>
<trkpt lat="34.43311700" lon="-111.33557800">
<ele>2312.400</ele>
</trkpt>
<trkpt lat="34.43316400" lon="-111.33573600">
<ele>2310.200</ele>
</trkpt>
<trkpt lat="34.43319900" lon="-111.33619000">
<ele>2305.600</ele>
</trkpt>
<trkpt lat="34.43319700" lon="-111.33703800">
<ele>2306.600</ele>
</trkpt>
<trkpt lat="34.43325800" lon="-111.33750100">
<ele>2300.500</ele>
</trkpt>
<trkpt lat="34.43335700" lon="-111.33789800">
<ele>2296.100</ele>
</trkpt>
<trkpt lat="34.43345500" lon="-111.33816600">
<ele>2295.500</ele>
</trkpt>
<trkpt lat="34.43389100" lon="-111.33870200">
<ele>2293.000</ele>
</trkpt>
<trkpt lat="34.43431800" lon="-111.33914300">
<ele>2285.900</ele>
</trkpt>
<trkpt lat="34.43468200" lon="-111.33950900">
<ele>2282.700</ele>
</trkpt>
<trkpt lat="34.43495100" lon="-111.33975200">
<ele>2281.600</ele>
</trkpt>
<trkpt lat="34.43508800" lon="-111.33981700">
<ele>2281.700</ele>
</trkpt>
<trkpt lat="34.43565400" lon="-111.33988600">
<ele>2281.400</ele>
</trkpt>
<trkpt lat="34.43636300" lon="-111.33989600">
<ele>2273.900</ele>
</trkpt>
<trkpt lat="34.43683800" lon="-111.33999500">
<ele>2268.900</ele>
</trkpt>
<trkpt lat="34.43731600" lon="-111.34022200">
<ele>2268.400</ele>
</trkpt>
<trkpt lat="34.43763500" lon="-111.34038500">
<ele>2268.800</ele>
</trkpt>
<trkpt lat="34.43807100" lon="-111.34076000">
<ele>2272.700</ele>
</trkpt>
<trkpt lat="34.43856900" lon="-111.34107500">
<ele>2275.200</ele>
</trkpt>
<trkpt lat="34.43898000" lon="-111.34146800">
<ele>2279.500</ele>
</trkpt>
<trkpt lat="34.43939200" lon="-111.34205600">
<ele>2280.800</ele>
</trkpt>
<trkpt lat="34.43957100" lon="-111.34220000">
<ele>2280.600</ele>
</trkpt>
<trkpt lat="34.43980100" lon="-111.34227800">
<ele>2279.800</ele>
</trkpt>
<trkpt lat="34.44012800" lon="-111.34234400">
<ele>2279.300</ele>
</trkpt>
<trkpt lat="34.44054800" lon="-111.34260000">
<ele>2277.600</ele>
</trkpt>
<trkpt lat="34.44058200" lon="-111.34269700">
<ele>2277.200</ele>
</trkpt>
<trkpt lat="34.44054400" lon="-111.34283600">
<ele>2275.500</ele>
</trkpt>
<trkpt lat="34.44023000" lon="-111.34318800">
<ele>2269.500</ele>
</trkpt>
<trkpt lat="34.44009500" lon="-111.34352300">
<ele>2267.700</ele>
</trkpt>
<trkpt lat="34.44007100" lon="-111.34383900">
<ele>2267.700</ele>
</trkpt>
<trkpt lat="34.44023700" lon="-111.34443200">
<ele>2267.300</ele>
</trkpt>
<trkpt lat="34.44047000" lon="-111.34556400">
<ele>2255.200</ele>
</trkpt>
<trkpt lat="34.44066300" lon="-111.34625900">
<ele>2254.400</ele>
</trkpt>
<trkpt lat="34.44085100" lon="-111.34674700">
<ele>2254.500</ele>
</trkpt>
<trkpt lat="34.44131900" lon="-111.34788300">
<ele>2254.200</ele>
</trkpt>
<trkpt lat="34.44136900" lon="-111.34800500">
<ele>2253.200</ele>
</trkpt>
<trkpt lat="34.44137500" lon="-111.34801900">
<ele>2253.200</ele>
</trkpt>
<trkpt lat="34.44146700" lon="-111.34825800">
<ele>2250.300</ele>
</trkpt>
<trkpt lat="34.44166800" lon="-111.34843700">
<ele>2249.700</ele>
</trkpt>
<trkpt lat="34.44186700" lon="-111.34852600">
<ele>2251.000</ele>
</trkpt>
<trkpt lat="34.44226100" lon="-111.34860300">
<ele>2253.500</ele>
</trkpt>
<trkpt lat="34.44255700" lon="-111.34861500">
<ele>2254.700</ele>
</trkpt>
<trkpt lat="34.44307000" lon="-111.34877500">
<ele>2255.500</ele>
</trkpt>
<trkpt lat="34.44387400" lon="-111.34938400">
<ele>2257.400</ele>
</trkpt>
<trkpt lat="34.44446800" lon="-111.34976000">
<ele>2261.400</ele>
</trkpt>
<trkpt lat="34.44482900" lon="-111.35001200">
<ele>2263.500</ele>
</trkpt>
<trkpt lat="34.44533900" lon="-111.35036800">
<ele>2263.900</ele>
</trkpt>
<trkpt lat="34.44555100" lon="-111.35056000">
<ele>2262.700</ele>
</trkpt>
<trkpt lat="34.44570600" lon="-111.35081100">
<ele>2261.100</ele>
</trkpt>
<trkpt lat="34.44586300" lon="-111.35120600">
<ele>2259.600</ele>
</trkpt>
<trkpt lat="34.44615000" lon="-111.35195200">
<ele>2263.600</ele>
</trkpt>
<trkpt lat="34.44666700" lon="-111.35250800">
<ele>2267.500</ele>
</trkpt>
<trkpt lat="34.44714000" lon="-111.35297100">
<ele>2267.600</ele>
</trkpt>
<trkpt lat="34.44769200" lon="-111.35342400">
<ele>2268.000</ele>
</trkpt>
<trkpt lat="34.44793800" lon="-111.35374600">
<ele>2267.900</ele>
</trkpt>
<trkpt lat="34.44815800" lon="-111.35416800">
<ele>2267.100</ele>
</trkpt>
<trkpt lat="34.44829800" lon="-111.35465800">
<ele>2267.300</ele>
</trkpt>
<trkpt lat="34.44831100" lon="-111.35506500">
<ele>2268.300</ele>
</trkpt>
<trkpt lat="34.44835700" lon="-111.35554400">
<ele>2271.200</ele>
</trkpt>
<trkpt lat="34.44834500" lon="-111.35595800">
<ele>2274.900</ele>
</trkpt>
<trkpt lat="34.44819700" lon="-111.35706000">
<ele>2278.900</ele>
</trkpt>
<trkpt lat="34.44807000" lon="-111.35766900">
<ele>2280.000</ele>
</trkpt>
<trkpt lat="34.44764000" lon="-111.35841700">
<ele>2288.400</ele>
</trkpt>
<trkpt lat="34.44750300" lon="-111.35858600">
<ele>2290.700</ele>
</trkpt>
<trkpt lat="34.44740800" lon="-111.35876000">
<ele>2291.800</ele>
</trkpt>
<trkpt lat="34.44738800" lon="-111.35892900">
<ele>2292.300</ele>
</trkpt>
<trkpt lat="34.44753400" lon="-111.35920000">
<ele>2293.200</ele>
</trkpt>
<trkpt lat="34.44776600" lon="-111.35940700">
<ele>2295.700</ele>
</trkpt>
<trkpt lat="34.44827000" lon="-111.35969700">
<ele>2299.800</ele>
</trkpt>
<trkpt lat="34.44885400" lon="-111.35984100">
<ele>2302.200</ele>
</trkpt>
<trkpt lat="34.44963100" lon="-111.35986000">
<ele>2304.800</ele>
</trkpt>
<trkpt lat="34.44985600" lon="-111.35994100">
<ele>2304.800</ele>
</trkpt>
<trkpt lat="34.45000200" lon="-111.36004500">
<ele>2304.300</ele>
</trkpt>
<trkpt lat="34.45010600" lon="-111.36018700">
<ele>2303.400</ele>
</trkpt>
<trkpt lat="34.45033400" lon="-111.36098900">
<ele>2294.200</ele>
</trkpt>
<trkpt lat="34.45050600" lon="-111.36143700">
<ele>2292.300</ele>
</trkpt>
<trkpt lat="34.45102500" lon="-111.36199600">
<ele>2293.600</ele>
</trkpt>
<trkpt lat="34.45131700" lon="-111.36241400">
<ele>2293.700</ele>
</trkpt>
<trkpt lat="34.45139500" lon="-111.36258700">
<ele>2293.200</ele>
</trkpt>
<trkpt lat="34.45139500" lon="-111.36258700">
<ele>2293.200</ele>
</trkpt>
<trkpt lat="34.45159100" lon="-111.36302300">
<ele>2292.600</ele>
</trkpt>
<trkpt lat="34.45235000" lon="-111.36406100">
<ele>2303.700</ele>
</trkpt>
<trkpt lat="34.45290800" lon="-111.36492600">
<ele>2306.800</ele>
</trkpt>
<trkpt lat="34.45314400" lon="-111.36522100">
<ele>2311.100</ele>
</trkpt>
<trkpt lat="34.45360700" lon="-111.36566700">
<ele>2316.800</ele>
</trkpt>
<trkpt lat="34.45375100" lon="-111.36581400">
<ele>2317.600</ele>
</trkpt>
<trkpt lat="34.45381100" lon="-111.36593000">
<ele>2318.200</ele>
</trkpt>
<trkpt lat="34.45385700" lon="-111.36606900">
<ele>2318.700</ele>
</trkpt>
<trkpt lat="34.45382900" lon="-111.36630300">
<ele>2319.400</ele>
</trkpt>
<trkpt lat="34.45368900" lon="-111.36654400">
<ele>2321.800</ele>
</trkpt>
<trkpt lat="34.45309900" lon="-111.36687700">
<ele>2326.000</ele>
</trkpt>
<trkpt lat="34.45289700" lon="-111.36702700">
<ele>2327.000</ele>
</trkpt>
<trkpt lat="34.45281100" lon="-111.36714400">
<ele>2328.100</ele>
</trkpt>
<trkpt lat="34.45273300" lon="-111.36725700">
<ele>2328.800</ele>
</trkpt>
<trkpt lat="34.45267800" lon="-111.36738400">
<ele>2329.700</ele>
</trkpt>
<trkpt lat="34.45264200" lon="-111.36753300">
<ele>2330.600</ele>
</trkpt>
<trkpt lat="34.45263900" lon="-111.36771400">
<ele>2332.600</ele>
</trkpt>
<trkpt lat="34.45271700" lon="-111.36794600">
<ele>2336.500</ele>
</trkpt>
<trkpt lat="34.45296800" lon="-111.36835500">
<ele>2339.900</ele>
</trkpt>
<trkpt lat="34.45360300" lon="-111.36891200">
<ele>2343.400</ele>
</trkpt>
<trkpt lat="34.45387700" lon="-111.36915900">
<ele>2344.900</ele>
</trkpt>
<trkpt lat="34.45424400" lon="-111.36969600">
<ele>2352.000</ele>
</trkpt>
<trkpt lat="34.45485700" lon="-111.37044900">
<ele>2357.600</ele>
</trkpt>
<trkpt lat="34.45501100" lon="-111.37096200">
<ele>2362.600</ele>
</trkpt>
<trkpt lat="34.45500200" lon="-111.37143100">
<ele>2365.700</ele>
</trkpt>
<trkpt lat="34.45495200" lon="-111.37188700">
<ele>2370.800</ele>
</trkpt>
<trkpt lat="34.45480600" lon="-111.37257900">
<ele>2376.000</ele>
</trkpt>
<trkpt lat="34.45462700" lon="-111.37300000">
<ele>2376.500</ele>
</trkpt>
<trkpt lat="34.45377000" lon="-111.37422600">
<ele>2381.400</ele>
</trkpt>
<trkpt lat="34.45280400" lon="-111.37534400">
<ele>2395.000</ele>
</trkpt>
<trkpt lat="34.45266800" lon="-111.37570200">
<ele>2397.200</ele>
</trkpt>
<trkpt lat="34.45265000" lon="-111.37591600">
<ele>2397.600</ele>
</trkpt>
<trkpt lat="34.45270600" lon="-111.37611700">
<ele>2399.300</ele>
</trkpt>
<trkpt lat="34.45337100" lon="-111.37699000">
<ele>2398.300</ele>
</trkpt>
<trkpt lat="34.45395300" lon="-111.37817900">
<ele>2405.300</ele>
</trkpt>
<trkpt lat="34.45424200" lon="-111.37880000">
<ele>2408.700</ele>
</trkpt>
<trkpt lat="34.45433200" lon="-111.37946600">
<ele>2410.800</ele>
</trkpt>
<trkpt lat="34.45420000" lon="-111.38007400">
<ele>2409.000</ele>
</trkpt>
<trkpt lat="34.45409800" lon="-111.38035400">
<ele>2405.400</ele>
</trkpt>
<trkpt lat="34.45371400" lon="-111.38084600">
<ele>2401.900</ele>
</trkpt>
<trkpt lat="34.45360100" lon="-111.38099300">
<ele>2401.200</ele>
</trkpt>
<trkpt lat="34.45342700" lon="-111.38126100">
<ele>2399.000</ele>
</trkpt>
<trkpt lat="34.45300000" lon="-111.38181200">
<ele>2392.100</ele>
</trkpt>
<trkpt lat="34.45270300" lon="-111.38206300">
<ele>2389.200</ele>
</trkpt>
<trkpt lat="34.45259100" lon="-111.38220300">
<ele>2387.900</ele>
</trkpt>
<trkpt lat="34.45251000" lon="-111.38239600">
<ele>2385.800</ele>
</trkpt>
<trkpt lat="34.45249800" lon="-111.38253000">
<ele>2383.500</ele>
</trkpt>
<trkpt lat="34.45249800" lon="-111.38253000">
<ele>2383.500</ele>
</trkpt>
<trkpt lat="34.45248400" lon="-111.38268100">
<ele>2382.500</ele>
</trkpt>
<trkpt lat="34.45251500" lon="-111.38287400">
<ele>2381.300</ele>
</trkpt>
<trkpt lat="34.45263400" lon="-111.38311900">
<ele>2380.800</ele>
</trkpt>
<trkpt lat="34.45276100" lon="-111.38330100">
<ele>2380.400</ele>
</trkpt>
<trkpt lat="34.45284000" lon="-111.38357600">
<ele>2378.700</ele>
</trkpt>
<trkpt lat="34.45294500" lon="-111.38385200">
<ele>2376.500</ele>
</trkpt>
<trkpt lat="34.45306300" lon="-111.38409800">
<ele>2373.700</ele>
</trkpt>
<trkpt lat="34.45315700" lon="-111.38429200">
<ele>2371.400</ele>
</trkpt>
<trkpt lat="34.45324600" lon="-111.38446300">
<ele>2369.300</ele>
</trkpt>
<trkpt lat="34.45333200" lon="-111.38458300">
<ele>2368.100</ele>
</trkpt>
<trkpt lat="34.45346100" lon="-111.38465500">
<ele>2366.600</ele>
</trkpt>
<trkpt lat="34.45412300" lon="-111.38466500">
<ele>2365.500</ele>
</trkpt>
<trkpt lat="34.45461400" lon="-111.38463300">
<ele>2361.800</ele>
</trkpt>
<trkpt lat="34.45475200" lon="-111.38460700">
<ele>2361.900</ele>
</trkpt>
<trkpt lat="34.45492900" lon="-111.38450700">
<ele>2361.800</ele>
</trkpt>
<trkpt lat="34.45538000" lon="-111.38407300">
<ele>2355.900</ele>
</trkpt>
<trkpt lat="34.45566500" lon="-111.38386600">
<ele>2349.800</ele>
</trkpt>
<trkpt lat="34.45575000" lon="-111.38383200">
<ele>2349.000</ele>
</trkpt>
<trkpt lat="34.45575000" lon="-111.38383200">
<ele>2349.000</ele>
</trkpt>
<trkpt lat="34.45584900" lon="-111.38379200">
<ele>2348.000</ele>
</trkpt>
<trkpt lat="34.45596200" lon="-111.38387600">
<ele>2347.000</ele>
</trkpt>
<trkpt lat="34.45600000" lon="-111.38410800">
<ele>2346.100</ele>
</trkpt>
<trkpt lat="34.45542600" lon="-111.38497800">
<ele>2337.800</ele>
</trkpt>
<trkpt lat="34.45536600" lon="-111.38518500">
<ele>2338.100</ele>
</trkpt>
<trkpt lat="34.45537200" lon="-111.38540900">
<ele>2336.500</ele>
</trkpt>
<trkpt lat="34.45579900" lon="-111.38622900">
<ele>2328.000</ele>
</trkpt>
<trkpt lat="34.45597600" lon="-111.38682300">
<ele>2325.000</ele>
</trkpt>
<trkpt lat="34.45597600" lon="-111.38682300">
<ele>2325.000</ele>
</trkpt>
<trkpt lat="34.45598900" lon="-111.38686500">
<ele>2324.900</ele>
</trkpt>
<trkpt lat="34.45604200" lon="-111.38716800">
<ele>2323.600</ele>
</trkpt>
<trkpt lat="34.45583600" lon="-111.38932500">
<ele>2306.500</ele>
</trkpt>
<trkpt lat="34.45570600" lon="-111.38945800">
<ele>2305.800</ele>
</trkpt>
<trkpt lat="34.45541700" lon="-111.38953000">
<ele>2305.100</ele>
</trkpt>
<trkpt lat="34.45514000" lon="-111.38955500">
<ele>2304.300</ele>
</trkpt>
<trkpt lat="34.45502800" lon="-111.38960800">
<ele>2304.000</ele>
</trkpt>
<trkpt lat="34.45502800" lon="-111.38960800">
<ele>2304.000</ele>
</trkpt>
<trkpt lat="34.45488400" lon="-111.38967500">
<ele>2303.300</ele>
</trkpt>
<trkpt lat="34.45472200" lon="-111.38989800">
<ele>2301.000</ele>
</trkpt>
<trkpt lat="34.45443000" lon="-111.39063300">
<ele>2292.700</ele>
</trkpt>
<trkpt lat="34.45403700" lon="-111.39159300">
<ele>2284.900</ele>
</trkpt>
<trkpt lat="34.45398700" lon="-111.39179500">
<ele>2283.700</ele>
</trkpt>
<trkpt lat="34.45387700" lon="-111.39224500">
<ele>2281.000</ele>
</trkpt>
<trkpt lat="34.45387700" lon="-111.39224500">
<ele>2281.000</ele>
</trkpt>
<trkpt lat="34.45385300" lon="-111.39234100">
<ele>2280.600</ele>
</trkpt>
<trkpt lat="34.45382700" lon="-111.39611700">
<ele>2267.500</ele>
</trkpt>
<trkpt lat="34.45378400" lon="-111.39611400">
<ele>2267.500</ele>
</trkpt>
<trkpt lat="34.45378400" lon="-111.39611400">
<ele>2267.500</ele>
</trkpt>
<trkpt lat="34.45382700" lon="-111.39611700">
<ele>2267.500</ele>
</trkpt>
<trkpt lat="34.45404900" lon="-111.39621500">
<ele>2268.000</ele>
</trkpt>
<trkpt lat="34.45412300" lon="-111.39623800">
<ele>2268.000</ele>
</trkpt>
<trkpt lat="34.45461700" lon="-111.39639300">
<ele>2268.300</ele>
</trkpt>
<trkpt lat="34.45491900" lon="-111.39649300">
<ele>2268.300</ele>
</trkpt>
<trkpt lat="34.45521800" lon="-111.39653000">
<ele>2268.300</ele>
</trkpt>
<trkpt lat="34.45531200" lon="-111.39655900">
<ele>2268.300</ele>
</trkpt>
</trkseg>
</trk>
</gpx>
