<?xml version="1.0" encoding="UTF-8"?>
<gpx xmlns="http://www.topografix.com/GPX/1/1" version="1.1" creator="Arizona Alpine Trail segment export" xmlns:xsi="http://www.w3.org/2001/XMLSchema-instance" xmlns:wptx1="http://www.garmin.com/xmlschemas/WaypointExtension/v1" xmlns:gpxx="http://www.garmin.com/xmlschemas/GpxExtensions/v3" xmlns:gpxtpx="http://www.garmin.com/xmlschemas/TrackPointExtension/v2" xsi:schemaLocation="http://www.topografix.com/GPX/1/1 https://www.topografix.com/GPX/1/1/gpx.xsd">
<metadata>
<name>AZAT Segment 29 - The Rim</name>
<desc>Generated from arizona-alpine-trail.gpx.</desc>
<bounds minlat="34.36922200" minlon="-111.51225738" maxlat="34.45722255" maxlon="-111.39677219"/>
</metadata>
<wpt lat="34.43274527" lon="-111.49523896">
<ele>2046.243</ele>
<time>2025-10-13T22:04:05.382Z</time>
<name>AZAT-The Rim</name>
<sym>Flag, Red</sym>
<type>Trail description</type>
<extensions>
<label xmlns="http://www.topografix.com/GPX/gpx_overlay/0/5">
<label_text>AZAT-29 The Rim</label_text>
<text xmlns="http://www.topografix.com/GPX/gpx_style/0/2">
<font>
<size>3.704</size>
</font>
</text>
</label>
<time xmlns="http://www.topografix.com/GPX/gpx_modified/0/1">2026-03-19T20:59:52.721Z</time>
</extensions>
</wpt>
<trk>
<name>AZAT29-The Rim</name>
<type>Forest Service Rd level 2 or higher</type>
<extensions>
<time xmlns="http://www.topografix.com/GPX/gpx_modified/0/1">2026-03-19T20:59:35.625Z</time>
<override_color xmlns="http://www.topografix.com/GPX/Private/TopoGrafix/0/5">000000</override_color>
<label xmlns="http://www.topografix.com/GPX/gpx_overlay/0/5">
<label_text>AZAT-29 The Rim</label_text>
<text xmlns="http://www.topografix.com/GPX/gpx_style/0/2">
<font>
<size>3.175</size>
</font>
</text>
</label>
<line xmlns="http://www.topografix.com/GPX/gpx_style/0/2">
<color>ff1c45</color>
<opacity>1.00</opacity>
<width>2.0420</width>
<pattern>Solid</pattern>
<extensions>
<cased xmlns="http://www.topografix.com/GPX/Private/TopoGrafix/0/5">true</cased>
</extensions>
</line>
</extensions>
<trkseg>
<trkpt lat="34.45572952" lon="-111.39677219">
<ele>2276.766</ele>
</trkpt>
<trkpt lat="34.45530294" lon="-111.39853172">
<ele>2273.781</ele>
</trkpt>
<trkpt lat="34.45523184" lon="-111.40054874">
<ele>2268.656</ele>
</trkpt>
<trkpt lat="34.45608501" lon="-111.40256576">
<ele>2258.820</ele>
</trkpt>
<trkpt lat="34.45708036" lon="-111.40526942">
<ele>2250.484</ele>
</trkpt>
<trkpt lat="34.45722255" lon="-111.40801601">
<ele>2234.277</ele>
</trkpt>
<trkpt lat="34.45672487" lon="-111.41037635">
<ele>2222.438</ele>
</trkpt>
<trkpt lat="34.45594281" lon="-111.41226463">
<ele>2213.047</ele>
</trkpt>
<trkpt lat="34.45473415" lon="-111.41419582">
<ele>2212.000</ele>
</trkpt>
<trkpt lat="34.45341883" lon="-111.41604118">
<ele>2215.406</ele>
</trkpt>
<trkpt lat="34.45196129" lon="-111.41745738">
<ele>2216.148</ele>
</trkpt>
<trkpt lat="34.45078812" lon="-111.41853027">
<ele>2211.070</ele>
</trkpt>
<trkpt lat="34.45050371" lon="-111.42007522">
<ele>2216.117</ele>
</trkpt>
<trkpt lat="34.45157023" lon="-111.42479591">
<ele>2210.625</ele>
</trkpt>
<trkpt lat="34.45345438" lon="-111.43329314">
<ele>2176.992</ele>
</trkpt>
<trkpt lat="34.45430756" lon="-111.43827132">
<ele>2154.000</ele>
</trkpt>
<trkpt lat="34.45452086" lon="-111.44076041">
<ele>2151.902</ele>
</trkpt>
<trkpt lat="34.45441421" lon="-111.44294910">
<ele>2162.402</ele>
</trkpt>
<trkpt lat="34.45384542" lon="-111.44445113">
<ele>2166.316</ele>
</trkpt>
<trkpt lat="34.45235234" lon="-111.44625358">
<ele>2166.688</ele>
</trkpt>
<trkpt lat="34.44940163" lon="-111.44839935">
<ele>2167.637</ele>
</trkpt>
<trkpt lat="34.44737518" lon="-111.44960098">
<ele>2173.621</ele>
</trkpt>
<trkpt lat="34.44456651" lon="-111.45170383">
<ele>2170.148</ele>
</trkpt>
<trkpt lat="34.44232662" lon="-111.45380668">
<ele>2171.441</ele>
</trkpt>
<trkpt lat="34.44157998" lon="-111.45578078">
<ele>2179.371</ele>
</trkpt>
<trkpt lat="34.44161553" lon="-111.45762614">
<ele>2176.441</ele>
</trkpt>
<trkpt lat="34.44303770" lon="-111.46110229">
<ele>2166.004</ele>
</trkpt>
<trkpt lat="34.44385544" lon="-111.46320514">
<ele>2153.176</ele>
</trkpt>
<trkpt lat="34.44360657" lon="-111.46513633">
<ele>2146.500</ele>
</trkpt>
<trkpt lat="34.44214885" lon="-111.46689586">
<ele>2139.461</ele>
</trkpt>
<trkpt lat="34.44154442" lon="-111.46844081">
<ele>2126.652</ele>
</trkpt>
<trkpt lat="34.44101110" lon="-111.47161655">
<ele>2113.000</ele>
</trkpt>
<trkpt lat="34.44065555" lon="-111.47607974">
<ele>2102.773</ele>
</trkpt>
<trkpt lat="34.44058444" lon="-111.47934131">
<ele>2104.000</ele>
</trkpt>
<trkpt lat="34.44069111" lon="-111.48286037">
<ele>2106.625</ele>
</trkpt>
<trkpt lat="34.44122443" lon="-111.48582153">
<ele>2111.250</ele>
</trkpt>
<trkpt lat="34.44168664" lon="-111.48848228">
<ele>2110.676</ele>
</trkpt>
<trkpt lat="34.44154442" lon="-111.49032764">
<ele>2105.340</ele>
</trkpt>
<trkpt lat="34.44083333" lon="-111.49264507">
<ele>2091.516</ele>
</trkpt>
<trkpt lat="34.43862889" lon="-111.49655036">
<ele>2078.379</ele>
</trkpt>
<trkpt lat="34.43621105" lon="-111.50097064">
<ele>2065.656</ele>
</trkpt>
<trkpt lat="34.43436207" lon="-111.50414638">
<ele>2058.156</ele>
</trkpt>
<trkpt lat="34.43247748" lon="-111.50672130">
<ele>2056.613</ele>
</trkpt>
<trkpt lat="34.43037950" lon="-111.50903873">
<ele>2040.023</ele>
</trkpt>
<trkpt lat="34.42710797" lon="-111.51024036">
<ele>2021.758</ele>
</trkpt>
<trkpt lat="34.42490316" lon="-111.51139907">
<ele>2006.492</ele>
</trkpt>
<trkpt lat="34.42351624" lon="-111.51204280">
<ele>1995.277</ele>
</trkpt>
<trkpt lat="34.42230711" lon="-111.51225738">
<ele>1993.180</ele>
</trkpt>
<trkpt lat="34.42145360" lon="-111.51165656">
<ele>1988.371</ele>
</trkpt>
<trkpt lat="34.42131134" lon="-111.51058368">
<ele>1980.887</ele>
</trkpt>
<trkpt lat="34.42156029" lon="-111.50921039">
<ele>1975.438</ele>
</trkpt>
<trkpt lat="34.42084902" lon="-111.50779418">
<ele>1965.242</ele>
</trkpt>
<trkpt lat="34.41978210" lon="-111.50616340">
<ele>1954.313</ele>
</trkpt>
<trkpt lat="34.41995992" lon="-111.50414638">
<ele>1946.250</ele>
</trkpt>
<trkpt lat="34.42038669" lon="-111.50294475">
<ele>1937.207</ele>
</trkpt>
<trkpt lat="34.42156029" lon="-111.50208644">
<ele>1945.316</ele>
</trkpt>
<trkpt lat="34.42180923" lon="-111.50139980">
<ele>1922.980</ele>
</trkpt>
<trkpt lat="34.42127578" lon="-111.50088481">
<ele>1920.918</ele>
</trkpt>
<trkpt lat="34.42028000" lon="-111.50092773">
<ele>1930.297</ele>
</trkpt>
<trkpt lat="34.41914195" lon="-111.50118522">
<ele>1910.602</ele>
</trkpt>
<trkpt lat="34.41832397" lon="-111.50114230">
<ele>1901.555</ele>
</trkpt>
<trkpt lat="34.41757711" lon="-111.49998359">
<ele>1891.484</ele>
</trkpt>
<trkpt lat="34.41718589" lon="-111.49869613">
<ele>1892.715</ele>
</trkpt>
<trkpt lat="34.41626119" lon="-111.49779491">
<ele>1884.883</ele>
</trkpt>
<trkpt lat="34.41490969" lon="-111.49685077">
<ele>1868.980</ele>
</trkpt>
<trkpt lat="34.41416280" lon="-111.49539165">
<ele>1860.461</ele>
</trkpt>
<trkpt lat="34.41380713" lon="-111.49388961">
<ele>1850.301</ele>
</trkpt>
<trkpt lat="34.41398497" lon="-111.49230174">
<ele>1849.246</ele>
</trkpt>
<trkpt lat="34.41394940" lon="-111.49075679">
<ele>1838.039</ele>
</trkpt>
<trkpt lat="34.41348703" lon="-111.49002723">
<ele>1833.672</ele>
</trkpt>
<trkpt lat="34.41266900" lon="-111.48985557">
<ele>1827.137</ele>
</trkpt>
<trkpt lat="34.41124630" lon="-111.49101428">
<ele>1817.133</ele>
</trkpt>
<trkpt lat="34.40971688" lon="-111.49230174">
<ele>1810.238</ele>
</trkpt>
<trkpt lat="34.40872096" lon="-111.49316005">
<ele>1803.762</ele>
</trkpt>
<trkpt lat="34.40776060" lon="-111.49337463">
<ele>1797.059</ele>
</trkpt>
<trkpt lat="34.40676465" lon="-111.49247340">
<ele>1798.324</ele>
</trkpt>
<trkpt lat="34.40640896" lon="-111.49007014">
<ele>1811.820</ele>
</trkpt>
<trkpt lat="34.40644453" lon="-111.48667983">
<ele>1825.277</ele>
</trkpt>
<trkpt lat="34.40633782" lon="-111.48307494">
<ele>1837.469</ele>
</trkpt>
<trkpt lat="34.40583984" lon="-111.48097209">
<ele>1830.098</ele>
</trkpt>
<trkpt lat="34.40477273" lon="-111.47916965">
<ele>1819.379</ele>
</trkpt>
<trkpt lat="34.40377675" lon="-111.47822551">
<ele>1806.844</ele>
</trkpt>
<trkpt lat="34.40278076" lon="-111.47590808">
<ele>1789.793</ele>
</trkpt>
<trkpt lat="34.40089546" lon="-111.47363357">
<ele>1777.078</ele>
</trkpt>
<trkpt lat="34.39943699" lon="-111.47153072">
<ele>1764.402</ele>
</trkpt>
<trkpt lat="34.39883225" lon="-111.47026471">
<ele>1752.277</ele>
</trkpt>
<trkpt lat="34.39824530" lon="-111.46947078">
<ele>1750.406</ele>
</trkpt>
<trkpt lat="34.39764055" lon="-111.46893434">
<ele>1745.496</ele>
</trkpt>
<trkpt lat="34.39648440" lon="-111.46850518">
<ele>1735.809</ele>
</trkpt>
<trkpt lat="34.39522151" lon="-111.46775417">
<ele>1728.879</ele>
</trkpt>
<trkpt lat="34.39447445" lon="-111.46687440">
<ele>1721.719</ele>
</trkpt>
<trkpt lat="34.39411870" lon="-111.46582298">
<ele>1714.910</ele>
</trkpt>
<trkpt lat="34.39394082" lon="-111.46429948">
<ele>1704.879</ele>
</trkpt>
<trkpt lat="34.39404755" lon="-111.46303348">
<ele>1703.555</ele>
</trkpt>
<trkpt lat="34.39374516" lon="-111.46135978">
<ele>1689.844</ele>
</trkpt>
<trkpt lat="34.39326489" lon="-111.46030835">
<ele>1681.500</ele>
</trkpt>
<trkpt lat="34.39239329" lon="-111.45880632">
<ele>1679.809</ele>
</trkpt>
<trkpt lat="34.39203753" lon="-111.45781926">
<ele>1675.473</ele>
</trkpt>
<trkpt lat="34.39180629" lon="-111.45676784">
<ele>1664.773</ele>
</trkpt>
<trkpt lat="34.39134380" lon="-111.45569495">
<ele>1659.305</ele>
</trkpt>
<trkpt lat="34.39070342" lon="-111.45511560">
<ele>1657.063</ele>
</trkpt>
<trkpt lat="34.38990295" lon="-111.45485810">
<ele>1651.141</ele>
</trkpt>
<trkpt lat="34.38796399" lon="-111.45485810">
<ele>1643.000</ele>
</trkpt>
<trkpt lat="34.38645192" lon="-111.45490102">
<ele>1642.500</ele>
</trkpt>
<trkpt lat="34.38479752" lon="-111.45479373">
<ele>1636.277</ele>
</trkpt>
<trkpt lat="34.38387246" lon="-111.45430021">
<ele>1637.379</ele>
</trkpt>
<trkpt lat="34.38264496" lon="-111.45292691">
<ele>1637.676</ele>
</trkpt>
<trkpt lat="34.38113280" lon="-111.45189695">
<ele>1653.965</ele>
</trkpt>
<trkpt lat="34.37892677" lon="-111.45063094">
<ele>1640.988</ele>
</trkpt>
<trkpt lat="34.37727221" lon="-111.44925765">
<ele>1643.391</ele>
</trkpt>
<trkpt lat="34.37542191" lon="-111.44777707">
<ele>1645.000</ele>
</trkpt>
<trkpt lat="34.37376729" lon="-111.44655399">
<ele>1631.391</ele>
</trkpt>
<trkpt lat="34.37234392" lon="-111.44543819">
<ele>1640.160</ele>
</trkpt>
<trkpt lat="34.37154327" lon="-111.44455842">
<ele>1645.316</ele>
</trkpt>
<trkpt lat="34.37084937" lon="-111.44320659">
<ele>1654.402</ele>
</trkpt>
<trkpt lat="34.37013766" lon="-111.44168309">
<ele>1660.453</ele>
</trkpt>
<trkpt lat="34.36937258" lon="-111.43988065">
<ele>1665.852</ele>
</trkpt>
<trkpt lat="34.36922200" lon="-111.43956200">
<ele>1667.400</ele>
</trkpt>
</trkseg>
</trk>
</gpx>
